{
  "type": "FeatureCollection",
  "features": [
    {
      "type": "Feature",
      "id": 95802,
      "geometry": {
        "type": "Polygon",
        "coordinates": [
          [
            [
              47.474722,
              39.276389
            ],
            [
              47.516111,
              39.261944
            ],
            [
              47.368611,
              39.234444
            ],
            [
              47.359167,
              39.325556
            ],
            [
              47.474722,
              39.276389
            ]
          ]
        ]
      },
      "properties": {
        "fir": "منطقه پروازی تهران (ایران)",
        "city": "شهرستان خداآفرین",
        "date": 1791426600,
        "name:fa": "اطلاعیه هوانوردی · هشدار ناوبری · خداآفرین",
        "validTo": "۱۴۰۵/۰۷/۲۰، ۲۲:۰۰",
        "province": "استان آذربایجان شرقی",
        "validFrom": "۱۴۰۵/۰۷/۱۶، ۰۶:۰۰",
        "description": "تیراندازی با سلاح گرم در محدوده مشخص‌شده انجام خواهد شد.",
        "notamNumber": "B0500/26",
        "notamSource": "FAA NMS-API",
        "shapeSource": "محدوده‌ای با مختصات اعلام‌شده در نوتام",
        "notamCategory": "هشدار ناوبری (تیراندازی، رزمایش، پهپاد و مانند آن)",
        "description:ar": "سيتم إطلاق النار بالأسلحة النارية في المنطقة المحددة.",
        "description:en": "Firing with firearms will take place within the specified area.",
        "description:he": "ירי בנשק חם יבוצע באזור המצוין.",
        "description:tr": "Belirtilen alanda ateşli silahlarla atış yapılacaktır.",
        "description:ckb": "تەقەکردن بە چەکی گەرم لە مەودای دیاریکراودا ئەنجام دەدرێت.",
        "name:ckb": "ئاگاداریی فڕۆکەوانی · ئاگاداریی ڕێبەری · خودائافەرین",
        "city:ckb": "شارستانی خودائافەرین",
        "province:ckb": "ئازەربایجانی ڕۆژھەڵات",
        "name:en": "Aviation Notice · Navigation Warning · Khoda Afarin",
        "city:en": "Khoda Afarin",
        "province:en": "East Azerbaijan",
        "name:ar": "إشعار طيران · تحذير ملاحي · خداآفرين",
        "city:ar": "مقاطعة خداآفرين",
        "province:ar": "أذربيجان الشرقية",
        "name:he": "הודעת תעופה · אזהרת ניווט · חודאאפרין",
        "city:he": "חודאאפרין",
        "province:he": "אזרבייג'ן המזרחית",
        "name:tr": "Havacılık Bildirimi · Seyir Uyarısı · Hüdaferin",
        "city:tr": "Hüdaferin",
        "province:tr": "Doğu Azerbaycan",
        "id": "Mzg6bm90YW0tb2lpeC1iMDUwMC0yNg",
        "publicId": "Mzg6bm90YW0tb2lpeC1iMDUwMC0yNg",
        "sourceId": "notam-oiix-b0500-26",
        "layerId": 38,
        "type": "location",
        "status": "active",
        "urgency": null,
        "verificationTag": null,
        "expirationDate": "2026-10-12T18:30:00.000Z",
        "createdAt": "2026-10-07T04:35:23.751Z",
        "updatedAt": "2026-10-10T08:37:45.445Z"
      }
    },
    {
      "type": "Feature",
      "id": 95803,
      "geometry": {
        "type": "Polygon",
        "coordinates": [
          [
            [
              46.85,
              35.416667
            ],
            [
              47,
              35.416667
            ],
            [
              46.85,
              35.25
            ],
            [
              46.75,
              35.333333
            ],
            [
              46.85,
              35.416667
            ]
          ]
        ]
      },
      "properties": {
        "fir": "منطقه پروازی تهران (ایران)",
        "city": "شهرستان سنندج",
        "date": 1792236600,
        "name:fa": "اطلاعیه هوانوردی · هشدار ناوبری · سنندج",
        "validTo": "۱۴۰۵/۰۷/۳۰، ۱۸:۰۰",
        "province": "استان کردستان",
        "validFrom": "۱۴۰۵/۰۷/۲۵، ۱۵:۰۰",
        "description": "تیراندازی در محدوده مشخص‌شده انجام خواهد شد.",
        "notamNumber": "A2168/26",
        "notamSource": "FAA NMS-API",
        "shapeSource": "محدوده‌ای با مختصات اعلام‌شده در نوتام",
        "notamCategory": "هشدار ناوبری (تیراندازی، رزمایش، پهپاد و مانند آن)",
        "description:ar": "سيتم إطلاق النار في المنطقة المحددة.",
        "description:en": "Firing will take place within the specified area.",
        "description:he": "ירי יבוצע באזור המצוין.",
        "description:tr": "Belirtilen alanda atış yapılacaktır.",
        "description:ckb": "تەقەکردن لە مەودای دیاریکراودا ئەنجام دەدرێت.",
        "name:ckb": "ئاگاداریی فڕۆکەوانی · ئاگاداریی ڕێبەری · سنە",
        "city:ckb": "شارستانی سنە",
        "province:ckb": "کوردستان",
        "name:en": "Aviation Notice · Navigation Warning · Sanandaj",
        "city:en": "Sanandaj",
        "province:en": "Kurdistan",
        "name:ar": "إشعار طيران · تحذير ملاحي · سنندج",
        "city:ar": "مقاطعة سنندج",
        "province:ar": "كردستان",
        "name:he": "הודעת תעופה · אזהרת ניווט · סננדג'",
        "city:he": "סננדג'",
        "province:he": "כורדיסטאן",
        "name:tr": "Havacılık Bildirimi · Seyir Uyarısı · Senendec",
        "city:tr": "Senendec",
        "province:tr": "Kürdistan",
        "id": "Mzg6bm90YW0tb2lpeC1hMjE2OC0yNg",
        "publicId": "Mzg6bm90YW0tb2lpeC1hMjE2OC0yNg",
        "sourceId": "notam-oiix-a2168-26",
        "layerId": 38,
        "type": "location",
        "status": "active",
        "urgency": null,
        "verificationTag": null,
        "expirationDate": "2026-10-22T14:30:00.000Z",
        "createdAt": "2026-10-07T04:35:28.701Z",
        "updatedAt": "2026-10-10T08:37:45.445Z"
      }
    },
    {
      "type": "Feature",
      "id": 95805,
      "geometry": {
        "type": "Polygon",
        "coordinates": [
          [
            [
              52.58333,
              27.91667
            ],
            [
              52.33333,
              27.83333
            ],
            [
              52.33333,
              27.51667
            ],
            [
              52.58333,
              27.51667
            ],
            [
              52.58333,
              27.91667
            ]
          ]
        ]
      },
      "properties": {
        "fir": "منطقه پروازی تهران (ایران)",
        "city": "شهرستان کنگان",
        "date": 1789281300,
        "name:fa": "اطلاعیه هوانوردی · محدودیت فضای هوایی · کنگان (OIR18)",
        "validTo": "دائمی",
        "province": "استان بوشهر",
        "areaCodes": "OIR18",
        "validFrom": "۱۴۰۵/۰۶/۲۲، ۱۰:۰۵",
        "description": "سقف ارتفاع پروازی در محدوده مشخص‌شده به سطح پرواز ۱۹۵ کاهش یافته است. اطلاعات مربوطه در مجموعه اطلاعات هوانوردی بر همین اساس اصلاح می‌شود.",
        "notamNumber": "A2060/26",
        "notamSource": "FAA NMS-API",
        "shapeSource": "منطقه OIR18 طبق AIP ایران",
        "notamCategory": "محدودیت فضای هوایی (منطقه ممنوعه، محدود یا خطر)",
        "description:ar": "تم تخفيض الحد الأقصى لارتفاع الطيران في المنطقة المحددة إلى مستوى الطيران 195. وسيتم تعديل المعلومات ذات الصلة في مجموعة معلومات الطيران بناءً على ذلك.",
        "description:en": "The flight altitude ceiling in the specified area has been reduced to flight level 195. Relevant information in the Aeronautical Information Publication will be amended accordingly.",
        "description:he": "תקרת גובה הטיסה באזור המצוין הופחתה לרום טיסה 195. המידע הרלוונטי בקובץ המידע התעופתי יעודכן בהתאם.",
        "description:tr": "Belirtilen alandaki azami uçuş irtifası 195 uçuş seviyesine (FL195) düşürülmüştür. İlgili bilgiler Havacılık Bilgi Yayınında (AIP) buna göre düzeltilecektir.",
        "description:ckb": "بەرزترین ئاستی فڕین لە مەودای دیاریکراودا بۆ ئاستی فڕینی 195 دابەزیوە. زانیارییە پەیوەندیدارەکان لە کۆمەڵەی زانیاریی فڕۆکەوانیدا لەسەر ئەم بنەمایە چاک دەکرێنەوە.",
        "name:ckb": "ئاگاداریی فڕۆکەوانی · سنووردارکردنی بۆشاییی ئاسمانی · کەنگان (OIR18)",
        "city:ckb": "شارستانی کەنگان",
        "province:ckb": "بووشەھر",
        "name:en": "Aviation Notice · Airspace Restriction · Kangan (OIR18)",
        "city:en": "Kangan",
        "province:en": "Bushehr",
        "name:ar": "إشعار طيران · قيود المجال الجوي · كنكان (OIR18)",
        "city:ar": "مقاطعة كنكان",
        "province:ar": "بوشهر",
        "name:tr": "Havacılık Bildirimi · Hava Sahası Kısıtlaması · Kangan (OIR18)",
        "city:tr": "Kangan",
        "province:tr": "Buşehr",
        "name:he": "הודעת תעופה · הגבלת המרחב האווירי · קנגאן (OIR18)",
        "city:he": "נפת קנגאן",
        "province:he": "בושהר",
        "id": "Mzg6bm90YW0tb2lpeC1hMjA2MC0yNg",
        "publicId": "Mzg6bm90YW0tb2lpeC1hMjA2MC0yNg",
        "sourceId": "notam-oiix-a2060-26",
        "layerId": 38,
        "type": "location",
        "status": "active",
        "urgency": null,
        "verificationTag": null,
        "expirationDate": null,
        "createdAt": "2026-10-07T04:35:41.785Z",
        "updatedAt": "2026-10-10T08:37:45.445Z"
      }
    },
    {
      "type": "Feature",
      "id": 95806,
      "geometry": {
        "type": "Polygon",
        "coordinates": [
          [
            [
              46,
              35.85
            ],
            [
              46.1,
              35.93333
            ],
            [
              46.11667,
              36
            ],
            [
              46,
              36
            ],
            [
              46,
              35.85
            ]
          ]
        ]
      },
      "properties": {
        "fir": "منطقه پروازی تهران (ایران)",
        "city": "شهرستان بانه",
        "date": 1791024000,
        "name:fa": "اطلاعیه هوانوردی · محدودیت فضای هوایی · بانه (OID125)",
        "validTo": "۱۴۰۵/۰۷/۳۰، ۲۲:۰۰",
        "province": "استان کردستان",
        "replaces": "A2112/26",
        "areaCodes": "OID125",
        "validFrom": "۱۴۰۵/۰۷/۱۱، ۱۴:۱۰",
        "description": "بر اساس نشریه اطلاعات هوانوردی، محدوده پروازی مشخص‌شده فعال شده است. این منطقه در حال حاضر فعال اعلام شده است.",
        "notamNumber": "A2198/26",
        "notamSource": "FAA NMS-API",
        "shapeSource": "منطقه OID125 طبق AIP ایران",
        "notamCategory": "محدودیت فضای هوایی (منطقه ممنوعه، محدود یا خطر)",
        "description:ar": "وفقاً لنشرة معلومات الطيران، تم تفعيل منطقة الطيران المحددة. أُعلنت هذه المنطقة نشطة حالياً.",
        "description:en": "According to the Aeronautical Information Publication, the specified flight area has been activated. This zone is currently declared active.",
        "description:tr": "Havacılık Bilgi Yayınında belirtildiği üzere, belirlenen uçuş alanı aktif hale getirilmiştir. Bu bölge şu anda aktif olarak ilan edilmiştir.",
        "description:ckb": "بەپێی بڵاوکراوەی زانیاریی فڕۆکەوانی، مەودای فڕینی دیاریکراو چالاک کراوە. ئەم ناوچەیە لە ئێستادا بە چالاک ڕاگەیەندراوە.",
        "name:ckb": "ئاگاداریی فڕۆکەوانی · سنووردارکردنی بۆشاییی ئاسمانی · بانه (OID125)",
        "city:ckb": "شارستانی بانه",
        "province:ckb": "کوردستان",
        "name:en": "Aviation Notice · Airspace Restriction · Baneh (OID125)",
        "city:en": "Baneh",
        "province:en": "Kurdistan",
        "name:ar": "إشعار طيران · قيود المجال الجوي · بانه (OID125)",
        "city:ar": "مقاطعة بانه",
        "province:ar": "كردستان",
        "name:tr": "Havacılık Bildirimi · Hava Sahası Kısıtlaması · Bane (OID125)",
        "city:tr": "Bane",
        "province:tr": "Kürdistan",
        "name:he": "הודעת תעופה · הגבלת המרחב האווירי · באנה (OID125)",
        "description:he": "על פי פרסום המידע התעופתי, אזור הטיסה המצוין הופעל. אזור זה הוכרז כעת כפעיל.",
        "city:he": "נפת באנה",
        "province:he": "כורדיסטאן",
        "id": "Mzg6bm90YW0tb2lpeC1hMjE5OC0yNg",
        "publicId": "Mzg6bm90YW0tb2lpeC1hMjE5OC0yNg",
        "sourceId": "notam-oiix-a2198-26",
        "layerId": 38,
        "type": "location",
        "status": "active",
        "urgency": null,
        "verificationTag": null,
        "expirationDate": "2026-10-22T18:30:00.000Z",
        "createdAt": "2026-10-07T04:35:49.828Z",
        "updatedAt": "2026-10-10T08:37:45.445Z"
      }
    },
    {
      "type": "Feature",
      "id": 95807,
      "geometry": {
        "type": "Polygon",
        "coordinates": [
          [
            [
              47.76667,
              37.86667
            ],
            [
              47.88333,
              37.85
            ],
            [
              47.86667,
              37.95
            ],
            [
              47.75,
              37.93333
            ],
            [
              47.76667,
              37.86667
            ]
          ]
        ]
      },
      "properties": {
        "fir": "منطقه پروازی تهران (ایران)",
        "city": "شهرستان سراب",
        "date": 1791024300,
        "name:fa": "اطلاعیه هوانوردی · محدودیت فضای هوایی · سراب (OID126)",
        "validTo": "۱۴۰۵/۰۷/۲۳، ۲۰:۰۰",
        "province": "استان آذربایجان شرقی",
        "replaces": "A2166/26",
        "areaCodes": "OID126",
        "validFrom": "۱۴۰۵/۰۷/۱۱، ۱۴:۱۵",
        "description": "محدوده مشخص‌شده فعال شده است. برای اطلاعات بیشتر به بخش مربوطه در کتابچه اطلاعات هوانوردی ارجاع داده شده است.",
        "notamNumber": "A2199/26",
        "notamSource": "FAA NMS-API",
        "shapeSource": "منطقه OID126 طبق AIP ایران",
        "notamCategory": "محدودیت فضای هوایی (منطقه ممنوعه، محدود یا خطر)",
        "description:ar": "تم تفعيل المنطقة المحددة. للمزيد من المعلومات، يُرجى الرجوع إلى القسم المعني في دليل معلومات الطيران.",
        "description:en": "The specified area has been activated. For further information, reference is made to the relevant section in the Aeronautical Information Publication.",
        "description:he": "האזור המצוין הופעל. למידע נוסף ניתן לעיין בסעיף הרלוונטי בספר המידע התעופתי.",
        "description:tr": "Belirtilen alan aktif hale getirilmiştir. Daha fazla bilgi için Havacılık Bilgi Yayınındaki (AIP) ilgili bölüme başvurulmalıdır.",
        "description:ckb": "مەودای دیاریکراو چالاک کراوە. بۆ زانیاریی زیاتر ئاماژە بە بەشی پەیوەندیدار لە پەرتووکی زانیاریی فڕۆکەوانی کراوە.",
        "name:ckb": "ئاگاداریی فڕۆکەوانی · سنووردارکردنی بۆشاییی ئاسمانی · سەراب (OID126)",
        "city:ckb": "شارستانی سەراب",
        "province:ckb": "ئازەربایجانی ڕۆژھەڵات",
        "name:en": "Aviation Notice · Airspace Restriction · Sarab (OID126)",
        "city:en": "Sarab",
        "province:en": "East Azerbaijan",
        "name:ar": "إشعار طيران · قيود المجال الجوي · سراب (OID126)",
        "city:ar": "مقاطعة سراب",
        "province:ar": "أذربيجان الشرقية",
        "name:tr": "Havacılık Bildirimi · Hava Sahası Kısıtlaması · Serab (OID126)",
        "city:tr": "Serab",
        "province:tr": "Doğu Azerbaycan",
        "name:he": "הודעת תעופה · הגבלת המרחב האווירי · סראב (OID126)",
        "city:he": "נפת סראב",
        "province:he": "אזרבייג'ן המזרחית",
        "id": "Mzg6bm90YW0tb2lpeC1hMjE5OS0yNg",
        "publicId": "Mzg6bm90YW0tb2lpeC1hMjE5OS0yNg",
        "sourceId": "notam-oiix-a2199-26",
        "layerId": 38,
        "type": "location",
        "status": "active",
        "urgency": null,
        "verificationTag": null,
        "expirationDate": "2026-10-15T16:30:00.000Z",
        "createdAt": "2026-10-07T04:35:55.862Z",
        "updatedAt": "2026-10-10T08:37:45.445Z"
      }
    },
    {
      "type": "Feature",
      "id": 95808,
      "geometry": {
        "type": "Polygon",
        "coordinates": [
          [
            [
              45.75,
              37.083333
            ],
            [
              45.5,
              37
            ],
            [
              45.083333,
              37
            ],
            [
              45.5,
              37.166667
            ],
            [
              45.75,
              37.083333
            ]
          ]
        ]
      },
      "properties": {
        "fir": "منطقه پروازی تهران (ایران)",
        "date": 1791024540,
        "name:fa": "اطلاعیه هوانوردی · هشدار ناوبری · آذربایجان غربی",
        "validTo": "۱۴۰۵/۰۷/۲۳، ۲۲:۰۰",
        "province": "استان آذربایجان غربی",
        "replaces": "B0502/26",
        "validFrom": "۱۴۰۵/۰۷/۱۱، ۱۴:۱۹",
        "description": "تیراندازی در محدوده مشخص‌شده انجام خواهد شد.",
        "notamNumber": "B0504/26",
        "notamSource": "FAA NMS-API",
        "shapeSource": "محدوده‌ای با مختصات اعلام‌شده در نوتام",
        "notamCategory": "هشدار ناوبری (تیراندازی، رزمایش، پهپاد و مانند آن)",
        "description:ar": "سيتم إطلاق النار في المنطقة المحددة.",
        "description:en": "Firing will take place within the specified area.",
        "description:he": "ירי יבוצע באזור המצוין.",
        "description:tr": "Belirtilen alanda atış yapılacaktır.",
        "description:ckb": "تەقەکردن لە مەودای دیاریکراودا ئەنجام دەدرێت.",
        "name:ckb": "ئاگاداریی فڕۆکەوانی · ئاگاداریی ڕێبەری · ئازەربایجانی ڕۆژئاوا",
        "province:ckb": "ئازەربایجانی ڕۆژاوا",
        "name:en": "Aviation Notice · Navigation Warning · West Azerbaijan",
        "province:en": "West Azerbaijan",
        "name:ar": "إشعار طيران · تحذير ملاحي · أذربيجان الغربية",
        "province:ar": "أذربيجان الغربية",
        "name:he": "הודעת תעופה · אזהרת ניווט · מערב אזרבייג'אן",
        "province:he": "אזרבייג'ן המערבית",
        "name:tr": "Havacılık Bildirimi · Seyir Uyarısı · Batı Azerbaycan",
        "province:tr": "Batı Azerbaycan",
        "id": "Mzg6bm90YW0tb2lpeC1iMDUwNC0yNg",
        "publicId": "Mzg6bm90YW0tb2lpeC1iMDUwNC0yNg",
        "sourceId": "notam-oiix-b0504-26",
        "layerId": 38,
        "type": "location",
        "status": "active",
        "urgency": null,
        "verificationTag": null,
        "expirationDate": "2026-10-15T18:30:00.000Z",
        "createdAt": "2026-10-07T04:35:59.299Z",
        "updatedAt": "2026-10-10T08:37:45.445Z"
      }
    },
    {
      "type": "Feature",
      "id": 95809,
      "geometry": {
        "type": "Polygon",
        "coordinates": [
          [
            [
              51.001389,
              34.477778
            ],
            [
              51.064167,
              34.443611
            ],
            [
              51.035556,
              34.4025
            ],
            [
              50.986389,
              34.437778
            ],
            [
              51.001389,
              34.477778
            ]
          ]
        ]
      },
      "properties": {
        "fir": "منطقه پروازی تهران (ایران)",
        "city": "شهرستان قم",
        "date": 1791862200,
        "name:fa": "اطلاعیه هوانوردی · هشدار ناوبری · قم",
        "validTo": "۱۴۰۵/۰۷/۲۳، ۲۲:۰۰",
        "province": "استان قم",
        "validFrom": "۱۴۰۵/۰۷/۲۱، ۰۷:۰۰",
        "description": "تیراندازی در محدوده مشخص‌شده انجام خواهد شد.",
        "notamNumber": "B0508/26",
        "notamSource": "FAA NMS-API",
        "shapeSource": "محدوده‌ای با مختصات اعلام‌شده در نوتام",
        "notamCategory": "هشدار ناوبری (تیراندازی، رزمایش، پهپاد و مانند آن)",
        "description:ar": "سيتم إطلاق النار في المنطقة المحددة.",
        "description:en": "Firing will take place within the specified area.",
        "description:he": "ירי יבוצע באזור המצוין.",
        "description:tr": "Belirtilen alanda atış yapılacaktır.",
        "description:ckb": "تەقەکردن لە مەودای دیاریکراودا ئەنجام دەدرێت.",
        "name:ckb": "ئاگاداریی فڕۆکەوانی · ئاگاداریی ڕێبەری · قوم",
        "city:ckb": "شارستانی قوم",
        "province:ckb": "قوم",
        "name:en": "Aviation Notice · Navigation Warning · Qom",
        "city:en": "Qom",
        "province:en": "Qom",
        "name:ar": "إشعار طيران · تحذير ملاحي · قم",
        "city:ar": "مقاطعة قم",
        "province:ar": "قم",
        "name:he": "הודעת תעופה · אזהרת ניווט · קום",
        "city:he": "קום",
        "province:he": "קום",
        "name:tr": "Havacılık Bildirimi · Seyir Uyarısı · Kum",
        "city:tr": "Kum",
        "province:tr": "Kum",
        "id": "Mzg6bm90YW0tb2lpeC1iMDUwOC0yNg",
        "publicId": "Mzg6bm90YW0tb2lpeC1iMDUwOC0yNg",
        "sourceId": "notam-oiix-b0508-26",
        "layerId": 38,
        "type": "location",
        "status": "active",
        "urgency": null,
        "verificationTag": null,
        "expirationDate": "2026-10-15T18:30:00.000Z",
        "createdAt": "2026-10-07T04:36:05.456Z",
        "updatedAt": "2026-10-10T08:37:45.445Z"
      }
    },
    {
      "type": "Feature",
      "id": 95901,
      "geometry": {
        "type": "Polygon",
        "coordinates": [
          [
            [
              55.2,
              30.51661
            ],
            [
              55.209475,
              30.516209
            ],
            [
              55.218859,
              30.515009
            ],
            [
              55.22806,
              30.513021
            ],
            [
              55.236991,
              30.510266
            ],
            [
              55.245564,
              30.506769
            ],
            [
              55.253698,
              30.502564
            ],
            [
              55.261313,
              30.497693
            ],
            [
              55.268337,
              30.492201
            ],
            [
              55.274701,
              30.486142
            ],
            [
              55.280345,
              30.479575
            ],
            [
              55.285214,
              30.472562
            ],
            [
              55.289262,
              30.465171
            ],
            [
              55.292449,
              30.457474
            ],
            [
              55.294744,
              30.449545
            ],
            [
              55.296128,
              30.44146
            ],
            [
              55.296585,
              30.433297
            ],
            [
              55.296111,
              30.425135
            ],
            [
              55.294713,
              30.417052
            ],
            [
              55.292403,
              30.409126
            ],
            [
              55.289203,
              30.401434
            ],
            [
              55.285146,
              30.394049
            ],
            [
              55.280269,
              30.387042
            ],
            [
              55.27462,
              30.380481
            ],
            [
              55.268254,
              30.374429
            ],
            [
              55.261232,
              30.368945
            ],
            [
              55.253621,
              30.36408
            ],
            [
              55.245495,
              30.359881
            ],
            [
              55.236932,
              30.35639
            ],
            [
              55.228014,
              30.353639
            ],
            [
              55.218827,
              30.351655
            ],
            [
              55.209459,
              30.350457
            ],
            [
              55.2,
              30.350056
            ],
            [
              55.190541,
              30.350457
            ],
            [
              55.181173,
              30.351655
            ],
            [
              55.171986,
              30.353639
            ],
            [
              55.163068,
              30.35639
            ],
            [
              55.154505,
              30.359881
            ],
            [
              55.146379,
              30.36408
            ],
            [
              55.138768,
              30.368945
            ],
            [
              55.131746,
              30.374429
            ],
            [
              55.12538,
              30.380481
            ],
            [
              55.119731,
              30.387042
            ],
            [
              55.114854,
              30.394049
            ],
            [
              55.110797,
              30.401434
            ],
            [
              55.107597,
              30.409126
            ],
            [
              55.105287,
              30.417052
            ],
            [
              55.103889,
              30.425135
            ],
            [
              55.103415,
              30.433297
            ],
            [
              55.103872,
              30.44146
            ],
            [
              55.105256,
              30.449545
            ],
            [
              55.107551,
              30.457474
            ],
            [
              55.110738,
              30.465171
            ],
            [
              55.114786,
              30.472562
            ],
            [
              55.119655,
              30.479575
            ],
            [
              55.125299,
              30.486142
            ],
            [
              55.131663,
              30.492201
            ],
            [
              55.138687,
              30.497693
            ],
            [
              55.146302,
              30.502564
            ],
            [
              55.154436,
              30.506769
            ],
            [
              55.163009,
              30.510266
            ],
            [
              55.17194,
              30.513021
            ],
            [
              55.181141,
              30.515009
            ],
            [
              55.190525,
              30.516209
            ],
            [
              55.2,
              30.51661
            ]
          ]
        ]
      },
      "properties": {
        "fir": "منطقه پروازی تهران (ایران)",
        "city": "شهرستان شهربابک",
        "date": 1791318600,
        "flBand": "از سطح زمین تا بدون محدودیت ارتفاع",
        "name:fa": "اطلاعیه هوانوردی · هشدار ناوبری · شهربابک",
        "validTo": "۱۴۰۵/۰۸/۱۶، ۰۰:۰۰",
        "province": "استان کرمان",
        "validFrom": "۱۴۰۵/۰۷/۱۵، ۰۰:۰۰",
        "description": "فعالیت پهپادی در محدوده مشخص‌شده انجام خواهد شد. این فعالیت در دایره‌ای به شعاع ۵ مایل دریایی صورت می‌گیرد.",
        "notamNumber": "B0509/26",
        "notamSource": "FAA NMS-API",
        "shapeSource": "دایره‌ای به شعاع ۵ مایل دریایی",
        "notamCategory": "هشدار ناوبری (تیراندازی، رزمایش، پهپاد و مانند آن)",
        "description:ar": "سيتم تنفيذ نشاط للطائرات المسيرة في المنطقة المحددة. يجري هذا النشاط في دائرة بنصف قطر 5 أميال بحرية.",
        "description:en": "Drone activity will take place within the specified area. This activity will occur within a circle with a radius of 5 nautical miles.",
        "description:he": "פעילות כלי טיס בלתי מאוישים תבוצע באזור המצוין. פעילות זו תתקיים ברדיוס של 5 מיל ימי.",
        "description:tr": "Belirtilen alanda İHA faaliyeti gerçekleştirilecektir. Bu faaliyet, 5 deniz mili yarıçapındaki bir alanda yürütülecektir.",
        "description:ckb": "چالاکیی درۆن لە مەودای دیاریکراودا ئەنجام دەدرێت. ئەم چالاکییە لە بازنەیەکدا بە نیوەتەوەرەی 5 مایلی دەریایی ئەنجام دەدرێت.",
        "name:ckb": "ئاگاداریی فڕۆکەوانی · ئاگاداریی ڕێبەری · شەهربابەک",
        "city:ckb": "شارستانی شەهربابەک",
        "province:ckb": "کرمان",
        "name:en": "Aviation Notice · Navigation Warning · Shahr-e Babak",
        "city:en": "Shahr-e Babak",
        "province:en": "Kerman",
        "name:ar": "إشعار طيران · تحذير ملاحي · شهربابك",
        "city:ar": "مقاطعة شهربابك",
        "province:ar": "كرمان",
        "name:he": "הודעת תעופה · אזהרת ניווט · שהרבאבכ",
        "city:he": "שהרבאבכ",
        "province:he": "כרמאן",
        "name:tr": "Havacılık Bildirimi · Seyir Uyarısı · Şehrbabek",
        "city:tr": "Şehrbabek",
        "province:tr": "Kirman",
        "id": "Mzg6bm90YW0tb2lpeC1iMDUwOS0yNg",
        "publicId": "Mzg6bm90YW0tb2lpeC1iMDUwOS0yNg",
        "sourceId": "notam-oiix-b0509-26",
        "layerId": 38,
        "type": "location",
        "status": "active",
        "urgency": null,
        "verificationTag": null,
        "expirationDate": "2026-11-06T20:30:00.000Z",
        "createdAt": "2026-10-10T07:35:29.185Z",
        "updatedAt": "2026-10-10T08:37:45.445Z"
      }
    },
    {
      "type": "Feature",
      "id": 95902,
      "geometry": {
        "type": "Polygon",
        "coordinates": [
          [
            [
              55.533333,
              27.616093
            ],
            [
              55.627289,
              27.611972
            ],
            [
              55.72032,
              27.599649
            ],
            [
              55.811509,
              27.579245
            ],
            [
              55.89996,
              27.550962
            ],
            [
              55.984806,
              27.515077
            ],
            [
              56.065215,
              27.471944
            ],
            [
              56.140405,
              27.421987
            ],
            [
              56.209645,
              27.365694
            ],
            [
              56.272268,
              27.303618
            ],
            [
              56.327673,
              27.236366
            ],
            [
              56.375333,
              27.164593
            ],
            [
              56.414799,
              27.088999
            ],
            [
              56.445705,
              27.010319
            ],
            [
              56.467769,
              26.929316
            ],
            [
              56.480796,
              26.846775
            ],
            [
              56.484682,
              26.763491
            ],
            [
              56.479409,
              26.680269
            ],
            [
              56.465046,
              26.597907
            ],
            [
              56.441753,
              26.517198
            ],
            [
              56.409769,
              26.438913
            ],
            [
              56.369418,
              26.3638
            ],
            [
              56.321101,
              26.292576
            ],
            [
              56.265291,
              26.22592
            ],
            [
              56.202531,
              26.164463
            ],
            [
              56.133427,
              26.108791
            ],
            [
              56.058642,
              26.059429
            ],
            [
              55.978889,
              26.016845
            ],
            [
              55.894929,
              25.981442
            ],
            [
              55.807556,
              25.953554
            ],
            [
              55.717597,
              25.933444
            ],
            [
              55.625901,
              25.921301
            ],
            [
              55.533333,
              25.917241
            ],
            [
              55.440765,
              25.921301
            ],
            [
              55.349069,
              25.933444
            ],
            [
              55.25911,
              25.953554
            ],
            [
              55.171737,
              25.981442
            ],
            [
              55.087777,
              26.016845
            ],
            [
              55.008024,
              26.059429
            ],
            [
              54.933239,
              26.108791
            ],
            [
              54.864135,
              26.164463
            ],
            [
              54.801375,
              26.22592
            ],
            [
              54.745565,
              26.292576
            ],
            [
              54.697248,
              26.3638
            ],
            [
              54.656897,
              26.438913
            ],
            [
              54.624913,
              26.517198
            ],
            [
              54.60162,
              26.597907
            ],
            [
              54.587257,
              26.680269
            ],
            [
              54.581984,
              26.763491
            ],
            [
              54.58587,
              26.846775
            ],
            [
              54.598897,
              26.929316
            ],
            [
              54.620961,
              27.010319
            ],
            [
              54.651867,
              27.088999
            ],
            [
              54.691333,
              27.164593
            ],
            [
              54.738993,
              27.236366
            ],
            [
              54.794398,
              27.303618
            ],
            [
              54.857021,
              27.365694
            ],
            [
              54.926261,
              27.421987
            ],
            [
              55.001451,
              27.471944
            ],
            [
              55.08186,
              27.515077
            ],
            [
              55.166706,
              27.550962
            ],
            [
              55.255157,
              27.579245
            ],
            [
              55.346346,
              27.599649
            ],
            [
              55.439377,
              27.611972
            ],
            [
              55.533333,
              27.616093
            ]
          ]
        ]
      },
      "properties": {
        "fir": "منطقه پروازی تهران (ایران)",
        "city": "شهرستان بندر لنگه",
        "date": 1790089500,
        "flBand": "از سطح زمین تا بدون محدودیت ارتفاع",
        "name:fa": "اطلاعیه هوانوردی · محدودیت فضای هوایی · بندر لنگه",
        "validTo": "۱۴۰۵/۰۸/۲۵، ۰۰:۰۰",
        "province": "استان هرمزگان",
        "replaces": "A2090/26",
        "validFrom": "۱۴۰۵/۰۶/۳۱، ۱۸:۳۵",
        "description": "به دلیل برگزاری رزمایش نظامی، منطقه مشخص‌شده بسته شده است. این محدودیت برای تمامی پروازها اعمال می‌شود، به استثنای پروازهای ورودی به یا خروجی از فرودگاه مشخص‌شده.",
        "notamNumber": "A2132/26",
        "notamSource": "FAA NMS-API",
        "shapeSource": "دایره‌ای به شعاع ۵۱ مایل دریایی",
        "notamCategory": "محدودیت فضای هوایی (منطقه ممنوعه، محدود یا خطر)",
        "description:ar": "بسبب إجراء مناورات عسكرية، تم إغلاق المنطقة المحددة. يُطبق هذا القيد على جميع الرحلات الجوية، باستثناء الرحلات القادمة إلى أو المغادرة من المطار المحدد.",
        "description:en": "Due to a military exercise, the specified area has been closed. This restriction applies to all flights, except for flights arriving at or departing from the specified airport.",
        "description:he": "עקב קיומו של תרגיל צבאי, האזור המצוין נסגר. הגבלה זו חלה על כל הטיסות, למעט טיסות נכנסות או יוצאות מנמל התעופה המצוין.",
        "description:tr": "Askeri tatbikat düzenlenmesi nedeniyle belirtilen bölge kapatılmıştır. Bu kısıtlama, belirtilen havalimanına iniş yapan veya oradan kalkan uçuşlar hariç, tüm uçuşlar için geçerlidir.",
        "description:ckb": "بەھۆی بەڕێوەچوونی مانۆڕی سەربازی، ناوچەی دیاریکراو داخراوە. ئەم سنووردارکردنە بۆ سەرجەم فڕینەکان دەسەپێندرێت، جگە لە فڕینە هاتووکان بۆ یان دەرچووکان لە فرۆکەخانەی دیاریکراو.",
        "name:ckb": "ئاگاداریی فڕۆکەوانی · سنووردارکردنی بۆشاییی ئاسمانی · بەندەر لەنگە",
        "city:ckb": "شارستانی بەندەر لەنگە",
        "province:ckb": "ھورمزگان",
        "name:en": "Aviation Notice · Airspace Restriction · Bandar Lengeh",
        "city:en": "Bandar Lengeh",
        "province:en": "Hormozgan",
        "name:ar": "إشعار طيران · قيود المجال الجوي · بندر لنجة",
        "city:ar": "مقاطعة بندر لنجة",
        "province:ar": "هرمزكان",
        "name:tr": "Havacılık Bildirimi · Hava Sahası Kısıtlaması · Bender Lenge",
        "city:tr": "Bender Lenge",
        "province:tr": "Hürmüzgan",
        "name:he": "הודעת תעופה · הגבלת המרחב האווירי · בנדר לנגה",
        "city:he": "נפת בנדר לנגה",
        "province:he": "הורמוזגאן",
        "id": "Mzg6bm90YW0tb2lpeC1hMjEzMi0yNg",
        "publicId": "Mzg6bm90YW0tb2lpeC1hMjEzMi0yNg",
        "sourceId": "notam-oiix-a2132-26",
        "layerId": 38,
        "type": "location",
        "status": "active",
        "urgency": null,
        "verificationTag": null,
        "expirationDate": "2026-11-15T20:30:00.000Z",
        "createdAt": "2026-10-10T07:35:55.277Z",
        "updatedAt": "2026-10-10T08:37:45.445Z"
      }
    },
    {
      "type": "Feature",
      "id": 95904,
      "geometry": {
        "type": "Polygon",
        "coordinates": [
          [
            [
              46.196389,
              33.577778
            ],
            [
              46.228611,
              33.5875
            ],
            [
              46.249722,
              33.559722
            ],
            [
              46.249444,
              33.541389
            ],
            [
              46.196389,
              33.577778
            ]
          ]
        ]
      },
      "properties": {
        "fir": "منطقه پروازی تهران (ایران)",
        "city": "شهرستان مهران",
        "date": 1791793800,
        "flBand": "از سطح زمین تا بدون محدودیت ارتفاع",
        "name:fa": "اطلاعیه هوانوردی · هشدار ناوبری · مهران",
        "validTo": "۱۴۰۵/۰۷/۳۰، ۱۴:۰۰",
        "province": "استان ایلام",
        "validFrom": "۱۴۰۵/۰۷/۲۰، ۱۲:۰۰",
        "description": "تیراندازی در محدوده مشخص‌شده انجام خواهد شد.",
        "notamNumber": "A2226/26",
        "notamSource": "FAA NMS-API",
        "shapeSource": "محدوده‌ای با مختصات اعلام‌شده در نوتام",
        "notamCategory": "هشدار ناوبری (تیراندازی، رزمایش، پهپاد و مانند آن)",
        "description:ar": "سيتم إطلاق النار في المنطقة المحددة.",
        "description:en": "Firing will take place within the specified area.",
        "description:he": "ירי יבוצע באזור המצוין.",
        "description:tr": "Belirtilen alanda atış yapılacaktır.",
        "description:ckb": "تەقەکردن لە مەودای دیاریکراودا ئەنجام دەدرێت.",
        "name:ckb": "ئاگاداریی فڕۆکەوانی · ئاگاداریی ڕێبەری · مەهران",
        "city:ckb": "شارستانی مەهران",
        "province:ckb": "ئیلام",
        "name:en": "Aviation Notice · Navigation Warning · Mehran",
        "city:en": "Mehran",
        "province:en": "Ilam",
        "name:ar": "إشعار طيران · تحذير ملاحي · مهران",
        "city:ar": "مقاطعة مهران",
        "province:ar": "إيلام",
        "name:he": "הודעת תעופה · אזהרת ניווט · מהראן",
        "city:he": "מהראן",
        "province:he": "אילאם",
        "name:tr": "Havacılık Bildirimi · Seyir Uyarısı · Mehran",
        "city:tr": "Mehran",
        "province:tr": "İlam",
        "id": "Mzg6bm90YW0tb2lpeC1hMjIyNi0yNg",
        "publicId": "Mzg6bm90YW0tb2lpeC1hMjIyNi0yNg",
        "sourceId": "notam-oiix-a2226-26",
        "layerId": 38,
        "type": "location",
        "status": "active",
        "urgency": null,
        "verificationTag": null,
        "expirationDate": "2026-10-22T10:30:00.000Z",
        "createdAt": "2026-10-10T07:36:06.098Z",
        "updatedAt": "2026-10-10T08:37:45.445Z"
      }
    },
    {
      "type": "Feature",
      "id": 95905,
      "geometry": {
        "type": "Polygon",
        "coordinates": [
          [
            [
              47.55,
              33.28333
            ],
            [
              47.58333,
              33.28333
            ],
            [
              47.51667,
              33.45
            ],
            [
              47.41667,
              33.43333
            ],
            [
              47.55,
              33.28333
            ]
          ]
        ]
      },
      "properties": {
        "fir": "منطقه پروازی تهران (ایران)",
        "city": "شهرستان کوهدشت",
        "date": 1791689400,
        "flBand": "از سطح زمین تا بدون محدودیت ارتفاع",
        "name:fa": "اطلاعیه هوانوردی · محدودیت فضای هوایی · کوهدشت (OID127)",
        "validTo": "۱۴۰۵/۰۷/۲۳، ۲۳:۰۰",
        "province": "استان لرستان",
        "areaCodes": "OID127",
        "validFrom": "۱۴۰۵/۰۷/۱۹، ۰۷:۰۰",
        "description": "بر اساس اطلاعات هوانوردی منتشرشده، محدوده مشخص‌شده فعال شده است.",
        "notamNumber": "A2237/26",
        "notamSource": "FAA NMS-API",
        "shapeSource": "منطقه OID127 طبق AIP ایران",
        "notamCategory": "محدودیت فضای هوایی (منطقه ممنوعه، محدود یا خطر)",
        "description:ar": "بناءً على معلومات الطيران المنشورة، تم تفعيل المنطقة المحددة.",
        "description:en": "According to published aeronautical information, the specified area has been activated.",
        "description:he": "על פי המידע התעופתי שפורסם, האזור המצוין הופעל.",
        "description:tr": "Yayınlanan havacılık bilgilerine göre, belirtilen alan aktif hale getirilmiştir.",
        "description:ckb": "بەپێی زانیارییە فڕۆکەوانییە بڵاوکراوەکان، مەودای دیاریکراو چالاک کراوە.",
        "name:ckb": "ئاگاداریی فڕۆکەوانی · سنووردارکردنی بۆشاییی ئاسمانی · کۆهدەشت (OID127)",
        "city:ckb": "شارستانی کۆهدەشت",
        "province:ckb": "لوڕستان",
        "name:en": "Aviation Notice · Airspace Restriction · Kuhdasht (OID127)",
        "city:en": "Kuhdasht",
        "province:en": "Lorestan",
        "name:ar": "إشعار طيران · قيود المجال الجوي · كوهدشت (OID127)",
        "city:ar": "مقاطعة كوهدشت",
        "province:ar": "لرستان",
        "name:tr": "Havacılık Bildirimi · Hava Sahası Kısıtlaması · Kuhdeşt (OID127)",
        "city:tr": "Kuhdeşt",
        "province:tr": "Luristan",
        "name:he": "הודעת תעופה · הגבלת המרחב האווירי · קוהדשת (OID127)",
        "city:he": "נפת קוהדשת",
        "province:he": "לורסתאן",
        "id": "Mzg6bm90YW0tb2lpeC1hMjIzNy0yNg",
        "publicId": "Mzg6bm90YW0tb2lpeC1hMjIzNy0yNg",
        "sourceId": "notam-oiix-a2237-26",
        "layerId": 38,
        "type": "location",
        "status": "active",
        "urgency": null,
        "verificationTag": null,
        "expirationDate": "2026-10-15T19:30:00.000Z",
        "createdAt": "2026-10-10T07:36:23.650Z",
        "updatedAt": "2026-10-10T08:37:45.445Z"
      }
    },
    {
      "type": "Feature",
      "id": 95906,
      "geometry": {
        "type": "Polygon",
        "coordinates": [
          [
            [
              59.216667,
              34.95
            ],
            [
              59.216667,
              34.9
            ],
            [
              59.2,
              34.916667
            ],
            [
              59.2,
              34.95
            ],
            [
              59.216667,
              34.95
            ]
          ]
        ]
      },
      "properties": {
        "name:fa": "اطلاعیه هوانوردی · هشدار ناوبری · رشتخوار",
        "description": "تیراندازی در محدوده مشخص‌شده انجام خواهد شد.",
        "notamNumber": "B0520/26",
        "fir": "منطقه پروازی تهران (ایران)",
        "notamCategory": "هشدار ناوبری (تیراندازی، رزمایش، پهپاد و مانند آن)",
        "validFrom": "۱۴۰۵/۰۷/۲۵، ۰۷:۰۰",
        "validTo": "۱۴۰۵/۰۷/۳۰، ۲۲:۰۰",
        "shapeSource": "محدوده‌ای با مختصات اعلام‌شده در نوتام",
        "notamSource": "FAA NMS-API",
        "date": 1792207800,
        "flBand": "از سطح زمین تا بدون محدودیت ارتفاع",
        "city": "شهرستان رشتخوار",
        "province": "استان خراسان رضوی",
        "name:en": "Aviation Notice · Navigation Warning · Rashtkhar",
        "description:en": "Shooting will take place within the specified area.",
        "city:en": "Rashtkhar",
        "province:en": "Razavi Khorasan",
        "name:ar": "إشعار الطيران · تحذير ملاحي · رشتخوار",
        "description:ar": "سيتم إطلاق النار في المنطقة المحددة.",
        "city:ar": "مقاطعة رشتخوار",
        "province:ar": "خراسان رضوي",
        "name:he": "הודעת תעופה · אזהרת ניווט · רשתח'וואר",
        "description:he": "ירי יתבצע באזור המוגדר.",
        "city:he": "נפת רשתח'וואר",
        "province:he": "ח'וראסאן רזאווי",
        "name:tr": "Havacılık Bildirimi · Navigasyon Uyarısı · Reşthar",
        "description:tr": "Belirtilen bölgede atış yapılacaktır.",
        "city:tr": "Reşthar İlçesi",
        "province:tr": "Razavi Horasan",
        "name:ckb": "ئاگاداریی فڕۆکەوانی · وشیارکردنەوەی ڕێناویی · ڕەشتخوار",
        "description:ckb": "تەقەکردن لە سنووری دیاریکراودا ئەنجام دەدرێت.",
        "city:ckb": "شارستانی ڕەشتخوار",
        "province:ckb": "خوراسانی ڕەزەوی",
        "id": "Mzg6bm90YW0tb2lpeC1iMDUyMC0yNg",
        "publicId": "Mzg6bm90YW0tb2lpeC1iMDUyMC0yNg",
        "sourceId": "notam-oiix-b0520-26",
        "layerId": 38,
        "type": "location",
        "status": "active",
        "urgency": null,
        "verificationTag": null,
        "expirationDate": "2026-10-22T18:30:00.000Z",
        "createdAt": "2026-10-10T10:32:11.312Z",
        "updatedAt": "2026-10-10T10:32:11.312Z"
      }
    },
    {
      "type": "Feature",
      "id": 95907,
      "geometry": {
        "type": "Polygon",
        "coordinates": [
          [
            [
              55.05,
              36.21667
            ],
            [
              55.05,
              36.11667
            ],
            [
              55.11667,
              35.96667
            ],
            [
              55.3,
              36
            ],
            [
              55.05,
              36.21667
            ]
          ]
        ]
      },
      "properties": {
        "name:fa": "اطلاعیه هوانوردی · محدودیت فضای هوایی · شاهرود (OID84)",
        "description": "بر اساس اطلاعات منتشرشده هوانوردی، محدوده مشخص‌شده فعال شده است. این اعلامیه جهت آگاهی از وضعیت پروازی در این منطقه صادر شده است.",
        "notamNumber": "A2245/26",
        "fir": "منطقه پروازی تهران (ایران)",
        "notamCategory": "محدودیت فضای هوایی (منطقه ممنوعه، محدود یا خطر)",
        "validFrom": "۱۴۰۵/۰۷/۲۵، ۰۷:۰۰",
        "validTo": "۱۴۰۵/۰۷/۳۰، ۲۳:۰۰",
        "shapeSource": "منطقه OID84 طبق AIP ایران",
        "notamSource": "FAA NMS-API",
        "date": 1792207800,
        "flBand": "از سطح زمین تا بدون محدودیت ارتفاع",
        "areaCodes": "OID84",
        "city": "شهرستان شاهرود",
        "province": "استان سمنان",
        "name:en": "Aviation Notice · Airspace Restriction · Shahroud (OID84)",
        "description:en": "Based on published aviation information, the specified area has been activated. This notice was issued for awareness regarding flight status in this area.",
        "city:en": "Shahroud County",
        "province:en": "Semnan",
        "name:ar": "إشعار الملاحة الجوية · قيود المجال الجوي · شاهرود (OID84)",
        "description:ar": "بناءً على معلومات الملاحة الجوية المنشورة، تم تفعيل المنطقة المحددة. أُصدر هذا الإشعار للعلم بحالة الطيران في هذه المنطقة.",
        "city:ar": "مقاطعة شاهرود",
        "province:ar": "سمنان",
        "name:he": "הודעה תעופתית · הגבלת המרחב האווירי · שאהרוד (OID84)",
        "description:he": "על פי מידע תעופתי שפורסם, האזור המצוין הופעל. הודעה זו הונפקה לצורך מודעות למצב הטיסות באזור זה.",
        "city:he": "שאהרוד",
        "province:he": "סמנאן",
        "name:tr": "Havacılık Bildirimi · Hava Sahası Kısıtlaması · Şahrud (OID84)",
        "description:tr": "Yayınlanan havacılık bilgilerine göre belirlenen alan aktif hale getirilmiştir. Bu bildirim, bu bölgedeki uçuş durumu hakkında bilgi vermek amacıyla yayınlanmıştır.",
        "city:tr": "Şahrud",
        "province:tr": "Simnan",
        "name:ckb": "ئاگاداریی فڕین · سنووردارکردنی بواری ئاسمانی · شاهرود (OID84)",
        "description:ckb": "لەسەر بنەمای زانیارییە بڵاوکراوەکانی فڕین، ناوچەی دیاریکراو چالاک کراوەتەوە. ئەم ئاگادارییە بۆ ئاگاداری لە دۆخی گەشتە ئاسمانییەکان لەم ناوچەیەدا دەرکراوە.",
        "city:ckb": "شارستانی شاهرود",
        "province:ckb": "سمنان",
        "id": "Mzg6bm90YW0tb2lpeC1hMjI0NS0yNg",
        "publicId": "Mzg6bm90YW0tb2lpeC1hMjI0NS0yNg",
        "sourceId": "notam-oiix-a2245-26",
        "layerId": 38,
        "type": "location",
        "status": "active",
        "urgency": null,
        "verificationTag": null,
        "expirationDate": "2026-10-22T19:30:00.000Z",
        "createdAt": "2026-10-10T10:32:30.397Z",
        "updatedAt": "2026-10-10T10:32:30.397Z"
      }
    },
    {
      "type": "Feature",
      "id": 95908,
      "geometry": {
        "type": "Polygon",
        "coordinates": [
          [
            [
              60.775556,
              31.758056
            ],
            [
              60.775556,
              31.615556
            ],
            [
              60.676667,
              31.615556
            ],
            [
              60.676667,
              31.758056
            ],
            [
              60.775556,
              31.758056
            ]
          ]
        ]
      },
      "properties": {
        "name:fa": "اطلاعیه هوانوردی · هشدار ناوبری · نهبندان",
        "description": "تیراندازی در محدوده مشخص‌شده انجام خواهد شد.",
        "notamNumber": "A2246/26",
        "fir": "منطقه پروازی تهران (ایران)",
        "notamCategory": "هشدار ناوبری (تیراندازی، رزمایش، پهپاد و مانند آن)",
        "validFrom": "۱۴۰۵/۰۷/۲۵، ۰۷:۰۰",
        "validTo": "۱۴۰۵/۰۷/۳۰، ۲۳:۰۰",
        "shapeSource": "محدوده‌ای با مختصات اعلام‌شده در نوتام",
        "notamSource": "FAA NMS-API",
        "date": 1792207800,
        "flBand": "از سطح زمین تا بدون محدودیت ارتفاع",
        "city": "شهرستان نهبندان",
        "province": "استان خراسان جنوبی",
        "name:en": "Aviation Notice · Navigation Warning · Nehbandan",
        "description:en": "Firing will take place within the specified area.",
        "city:en": "Nehbandan County",
        "province:en": "South Khorasan",
        "name:ar": "إشعار طيران · تحذير ملاحي · نهبندان",
        "description:ar": "سيتم إطلاق النار في المنطقة المحددة.",
        "city:ar": "مقاطعة نهبندان",
        "province:ar": "خراسان الجنوبية",
        "name:he": "הודעה לתעופה · אזהרת ניווט · נהבנדאן",
        "description:he": "יתבצע ירי באזור המוגדר.",
        "city:he": "נהבנדאן",
        "province:he": "ח'וראסאן הדרומית",
        "name:tr": "Havacılık Bildirimi · Navigasyon Uyarısı · Nehbandan",
        "description:tr": "Belirtilen alanda atış yapılacaktır.",
        "city:tr": "Nehbandan İlçesi",
        "province:tr": "Güney Horasan",
        "name:ckb": "ئاگاداریی فڕۆکەوانی · ئاگاداریی ڕێدۆزی · نەهبەندان",
        "description:ckb": "تەقەکردن لە ناوچەی دیاریکراودا ئەنجام دەدرێت.",
        "city:ckb": "شارستانی نەهبەندان",
        "province:ckb": "خوراسانی باشوور",
        "id": "Mzg6bm90YW0tb2lpeC1hMjI0Ni0yNg",
        "publicId": "Mzg6bm90YW0tb2lpeC1hMjI0Ni0yNg",
        "sourceId": "notam-oiix-a2246-26",
        "layerId": 38,
        "type": "location",
        "status": "active",
        "urgency": null,
        "verificationTag": null,
        "expirationDate": "2026-10-22T19:30:00.000Z",
        "createdAt": "2026-10-10T10:32:37.567Z",
        "updatedAt": "2026-10-10T10:32:37.567Z"
      }
    },
    {
      "type": "Feature",
      "id": 95909,
      "geometry": {
        "type": "Polygon",
        "coordinates": [
          [
            [
              61.03333,
              28.21667
            ],
            [
              61.03333,
              28.15
            ],
            [
              61.18333,
              28.15
            ],
            [
              61.18333,
              28.21667
            ],
            [
              61.03333,
              28.21667
            ]
          ]
        ]
      },
      "properties": {
        "name:fa": "اطلاعیه هوانوردی · محدودیت فضای هوایی · خاش (OID122)",
        "description": "بر اساس اطلاعات مندرج در نشریه هوانوردی، محدوده مشخص‌شده فعال شده است. این منطقه در حال حاضر در وضعیت فعال قرار دارد.",
        "notamNumber": "A2247/26",
        "fir": "منطقه پروازی تهران (ایران)",
        "notamCategory": "محدودیت فضای هوایی (منطقه ممنوعه، محدود یا خطر)",
        "validFrom": "۱۴۰۵/۰۷/۲۱، ۰۶:۰۰",
        "validTo": "۱۴۰۵/۰۷/۲۹، ۰۰:۰۰",
        "shapeSource": "منطقه OID122 طبق AIP ایران",
        "notamSource": "FAA NMS-API",
        "date": 1791858600,
        "flBand": "از سطح زمین تا بدون محدودیت ارتفاع",
        "areaCodes": "OID122",
        "city": "شهرستان خاش",
        "province": "استان سیستان و بلوچستان",
        "name:en": "Aviation Notice · Airspace Restriction · Khash (OID122)",
        "description:en": "Based on information published in the aeronautical publication, the specified area has been activated. This zone is currently in active status.",
        "city:en": "Khash County",
        "province:en": "Sistan and Baluchestan",
        "name:ar": "إشعار الطيران · تقييد المجال الجوي · خاش (OID122)",
        "description:ar": "وفقًا للمعلومات الواردة في نشرة الطيران، تم تفعيل المنطقة المحددة. هذه المنطقة في حالة نشطة حاليًا.",
        "city:ar": "مقاطعة خاش",
        "province:ar": "سيستان وبلوشستان",
        "name:he": "הודעת תעופה · הגבלת מרחב אווירי · ח'אש (OID122)",
        "description:he": "על פי המידע המופיע בפרסום התעופתי, האזור המוגדר הופעל. אזור זה נמצא כעת במצב פעיל.",
        "city:he": "מחוז ח'אש",
        "province:he": "סיסתאן ובלוצ'יסתאן",
        "name:tr": "Havacılık Duyurusu · Hava Sahası Kısıtlaması · Haş (OID122)",
        "description:tr": "Havacılık bülteninde yer alan bilgilere göre, belirlenen alan etkinleştirilmiştir. Bu bölge şu anda aktif durumdadır.",
        "city:tr": "Haş İlçesi",
        "province:tr": "Sistan ve Belucistan",
        "name:ckb": "ئاگاداریی فڕۆکەوانی · سنووردارکردنی بۆشایی ئاسمانی · خاش (OID122)",
        "description:ckb": "بەپێی زانیارییە تۆمارکراوەکان لە بڵاوکراوەی فڕۆکەوانیدا، مەودای دیاریکراو چالاک کراوە. ئەم ناوچەیە لە ئێستادا لە دۆخی چالاکدایە.",
        "city:ckb": "شارستانی خاش",
        "province:ckb": "سیستان و بەلووچستان",
        "id": "Mzg6bm90YW0tb2lpeC1hMjI0Ny0yNg",
        "publicId": "Mzg6bm90YW0tb2lpeC1hMjI0Ny0yNg",
        "sourceId": "notam-oiix-a2247-26",
        "layerId": 38,
        "type": "location",
        "status": "active",
        "urgency": null,
        "verificationTag": null,
        "expirationDate": "2026-10-20T20:30:00.000Z",
        "createdAt": "2026-10-10T10:32:48.430Z",
        "updatedAt": "2026-10-10T10:32:48.430Z"
      }
    },
    {
      "type": "Feature",
      "id": 95910,
      "geometry": {
        "type": "Polygon",
        "coordinates": [
          [
            [
              60.35,
              35
            ],
            [
              60.51667,
              34.98333
            ],
            [
              60.63333,
              35.16667
            ],
            [
              60.35,
              35.18333
            ],
            [
              60.35,
              35
            ]
          ]
        ]
      },
      "properties": {
        "name:fa": "اطلاعیه هوانوردی · محدودیت فضای هوایی · باخرز (OID121)",
        "description": "پیرو اطلاعات هوانوردی منتشرشده، محدوده مشخص‌شده فعال گردیده است.",
        "notamNumber": "A2248/26",
        "fir": "منطقه پروازی تهران (ایران)",
        "notamCategory": "محدودیت فضای هوایی (منطقه ممنوعه، محدود یا خطر)",
        "validFrom": "۱۴۰۵/۰۷/۲۵، ۰۷:۰۰",
        "validTo": "۱۴۰۵/۰۷/۳۰، ۲۳:۰۰",
        "shapeSource": "منطقه OID121 طبق AIP ایران",
        "notamSource": "FAA NMS-API",
        "date": 1792207800,
        "flBand": "از سطح زمین تا بدون محدودیت ارتفاع",
        "areaCodes": "OID121",
        "city": "شهرستان باخرز",
        "province": "استان خراسان رضوی",
        "name:en": "Aeronautical Notice · Airspace Restriction · Bakharz (OID121)",
        "description:en": "Following the published aeronautical information, the designated area has been activated.",
        "city:en": "Bakharz",
        "province:en": "Razavi Khorasan",
        "name:ar": "إشعار الطيران · قيود المجال الجوي · باخرز (OID121)",
        "description:ar": "وفقاً لمعلومات الطيران المنشورة، تم تفعيل المنطقة المحددة.",
        "city:ar": "مقاطعة باخرز",
        "province:ar": "خراسان رضوي",
        "name:he": "הודעת תעופה · הגבלת המרחב האווירי · באחרז (OID121)",
        "description:he": "בהמשך למידע התעופתי שפורסם, האזור המוגדר הופעל.",
        "city:he": "מחוז משנה באחרז",
        "province:he": "ח'וראסאן רזאווי",
        "name:tr": "Havacılık Bildirimi · Hava Sahası Kısıtlaması · Bakharz (OID121)",
        "description:tr": "Yayımlanan havacılık bilgilerine göre, belirlenen alan aktif hale getirilmiştir.",
        "city:tr": "Bakharz",
        "province:tr": "Razavi Horasan",
        "name:ckb": "ئاگاداریی فڕۆکەوانی · سنووردارکردنی بۆشاییی ئاسمانی · باخەرز (OID121)",
        "description:ckb": "بەپێی زانیارییە بڵاوکراوەکانی فڕۆکەوانی، ناوچەی دیاریکراو چالاک کراوە.",
        "city:ckb": "شارستانی باخەرز",
        "province:ckb": "خوراسانی ڕەزەوی",
        "id": "Mzg6bm90YW0tb2lpeC1hMjI0OC0yNg",
        "publicId": "Mzg6bm90YW0tb2lpeC1hMjI0OC0yNg",
        "sourceId": "notam-oiix-a2248-26",
        "layerId": 38,
        "type": "location",
        "status": "active",
        "urgency": null,
        "verificationTag": null,
        "expirationDate": "2026-10-22T19:30:00.000Z",
        "createdAt": "2026-10-10T10:47:02.294Z",
        "updatedAt": "2026-10-10T10:47:02.294Z"
      }
    },
    {
      "type": "Feature",
      "id": 95911,
      "geometry": {
        "type": "Polygon",
        "coordinates": [
          [
            [
              45.99028,
              34.34528
            ],
            [
              45.99028,
              34.29167
            ],
            [
              46.02139,
              34.29167
            ],
            [
              46.02139,
              34.34528
            ],
            [
              45.99028,
              34.34528
            ]
          ]
        ]
      },
      "properties": {
        "name:fa": "اطلاعیه هوانوردی · محدودیت فضای هوایی · سرپل ذهاب (OID37)",
        "description": "بر اساس اطلاعات هوانوردی، محدوده مشخص‌شده فعال شده است.",
        "notamNumber": "A2249/26",
        "fir": "منطقه پروازی تهران (ایران)",
        "notamCategory": "محدودیت فضای هوایی (منطقه ممنوعه، محدود یا خطر)",
        "validFrom": "۱۴۰۵/۰۷/۲۵، ۰۸:۰۰",
        "validTo": "۱۴۰۵/۰۷/۳۰، ۲۲:۰۰",
        "shapeSource": "منطقه OID37 طبق AIP ایران",
        "notamSource": "FAA NMS-API",
        "date": 1792211400,
        "flBand": "از سطح زمین تا بدون محدودیت ارتفاع",
        "areaCodes": "OID37",
        "city": "شهرستان سرپل ذهاب",
        "province": "استان کرمانشاه",
        "name:en": "Aviation Notice · Airspace Restriction · Sarpol-e Zahab (OID37)",
        "description:en": "According to aeronautical information, the specified area has been activated.",
        "city:en": "Sarpol-e Zahab",
        "province:en": "Kermanshah",
        "name:ar": "إشعار طيران · قيود المجال الجوي · سربل ذهاب (OID37)",
        "description:ar": "بناءً على معلومات الطيران، تم تفعيل المنطقة المحددة.",
        "city:ar": "مقاطعة سربل ذهاب",
        "province:ar": "كرمانشاه",
        "name:he": "הודעת תעופה · הגבלת מרחב אווירי · סרפול-ה זהאב (OID37)",
        "description:he": "על פי מידע תעופתי, האזור המוגדר הופעל.",
        "city:he": "נפת סרפול-ה זהאב",
        "province:he": "כרמאנשאה",
        "name:tr": "Havacılık Bildirimi · Hava Sahası Kısıtlaması · Sarpol-e Zehab (OID37)",
        "description:tr": "Havacılık bilgilerine göre, belirlenen alan aktif hale getirilmiştir.",
        "city:tr": "Sarpol-e Zehab",
        "province:tr": "Kirmanşah",
        "name:ckb": "ئاگاداریی فڕۆکەوانی · سنووردارکردنی بۆشاییی ئاسمانی · سەرپێڵی زەهاو (OID37)",
        "description:ckb": "بەپێی زانیارییەکانی فڕۆکەوانی، ناوچەی دیاریکراو چالاک کراوە.",
        "city:ckb": "شارستانی سەرپێڵی زەهاو",
        "province:ckb": "کرماشان",
        "id": "Mzg6bm90YW0tb2lpeC1hMjI0OS0yNg",
        "publicId": "Mzg6bm90YW0tb2lpeC1hMjI0OS0yNg",
        "sourceId": "notam-oiix-a2249-26",
        "layerId": 38,
        "type": "location",
        "status": "active",
        "urgency": null,
        "verificationTag": null,
        "expirationDate": "2026-10-22T18:30:00.000Z",
        "createdAt": "2026-10-10T10:47:12.591Z",
        "updatedAt": "2026-10-10T10:47:12.591Z"
      }
    },
    {
      "type": "Feature",
      "id": 95912,
      "geometry": {
        "type": "Polygon",
        "coordinates": [
          [
            [
              58.66667,
              37.33333
            ],
            [
              58.58333,
              37.33333
            ],
            [
              58.58333,
              37.28333
            ],
            [
              58.66667,
              37.26667
            ],
            [
              58.66667,
              37.33333
            ]
          ]
        ]
      },
      "properties": {
        "name:fa": "اطلاعیه هوانوردی · محدودیت فضای هوایی · قوچان (OID128)",
        "description": "پیرو مستندات اطلاعات هوانوردی، محدوده مشخص‌شده فعال شده است.",
        "notamNumber": "A2250/26",
        "fir": "منطقه پروازی تهران (ایران)",
        "notamCategory": "محدودیت فضای هوایی (منطقه ممنوعه، محدود یا خطر)",
        "validFrom": "۱۴۰۵/۰۷/۲۵، ۰۶:۰۰",
        "validTo": "۱۴۰۵/۰۷/۳۰، ۲۰:۰۰",
        "shapeSource": "منطقه OID128 طبق AIP ایران",
        "notamSource": "FAA NMS-API",
        "date": 1792204200,
        "flBand": "از سطح زمین تا بدون محدودیت ارتفاع",
        "areaCodes": "OID128",
        "city": "شهرستان قوچان",
        "province": "استان خراسان رضوی",
        "name:en": "Aviation Notice · Airspace Restriction · Quchan (OID128)",
        "description:en": "According to aeronautical information documentation, the designated area has been activated.",
        "city:en": "Quchan County",
        "province:en": "Razavi Khorasan",
        "name:ar": "إشعار طيران · تقييد المجال الجوي · قوجان (OID128)",
        "description:ar": "وفقاً لوثائق معلومات الطيران، تم تفعيل المنطقة المحددة.",
        "city:ar": "مقاطعة قوجان",
        "province:ar": "خراسان رضوي",
        "name:he": "הודעת תעופה · הגבלת מרחב אווירי · קוצ'אן (OID128)",
        "description:he": "בהתאם למסמכי המידע התעופתי, האזור המוגדר הופעל.",
        "city:he": "קוצ'אן",
        "province:he": "ח'וראסאן רזאווי",
        "name:tr": "Havacılık Bildirimi · Hava Sahası Kısıtlaması · Guçan (OID128)",
        "description:tr": "Havacılık bilgi dokümanları uyarınca, belirlenen alan aktif hale getirilmiştir.",
        "city:tr": "Guçan İlçesi",
        "province:tr": "Razavi Horasan",
        "name:ckb": "ئاگاداریی فڕین · سنووردارکردنی بۆشاییی ئاسمانی · قۆچان (OID128)",
        "description:ckb": "بەپێی بەڵگەنامەکانی زانیاریی فڕین، ناوچەی دیاریکراو چالاک کراوە.",
        "city:ckb": "شارستانی قۆچان",
        "province:ckb": "خوراسانی ڕەزەوی",
        "id": "Mzg6bm90YW0tb2lpeC1hMjI1MC0yNg",
        "publicId": "Mzg6bm90YW0tb2lpeC1hMjI1MC0yNg",
        "sourceId": "notam-oiix-a2250-26",
        "layerId": 38,
        "type": "location",
        "status": "active",
        "urgency": null,
        "verificationTag": null,
        "expirationDate": "2026-10-22T16:30:00.000Z",
        "createdAt": "2026-10-10T10:47:19.888Z",
        "updatedAt": "2026-10-10T10:47:19.888Z"
      }
    },
    {
      "type": "Feature",
      "id": 95913,
      "geometry": {
        "type": "Polygon",
        "coordinates": [
          [
            [
              47.73333,
              37.06667
            ],
            [
              47.71667,
              37.11667
            ],
            [
              47.65,
              37.11667
            ],
            [
              47.66667,
              37.06667
            ],
            [
              47.73333,
              37.06667
            ]
          ]
        ]
      },
      "properties": {
        "name:fa": "اطلاعیه هوانوردی · محدودیت فضای هوایی · میانه (OID124)",
        "description": "محدوده مشخص‌شده فعال شده است. برای اطلاعات بیشتر به بخش مربوطه در نشریه اطلاعات هوانوردی ارجاع داده شده است.",
        "notamNumber": "A2252/26",
        "fir": "منطقه پروازی تهران (ایران)",
        "notamCategory": "محدودیت فضای هوایی (منطقه ممنوعه، محدود یا خطر)",
        "validFrom": "۱۴۰۵/۰۷/۲۰، ۰۷:۰۰",
        "validTo": "۱۴۰۵/۰۷/۲۷، ۲۲:۰۰",
        "shapeSource": "منطقه OID124 طبق AIP ایران",
        "notamSource": "FAA NMS-API",
        "date": 1791775800,
        "flBand": "از سطح زمین تا بدون محدودیت ارتفاع",
        "areaCodes": "OID124",
        "city": "شهرستان میانه",
        "province": "استان آذربایجان شرقی",
        "name:en": "Aeronautical Notice · Airspace Restriction · Miyaneh (OID124)",
        "description:en": "The designated area has been activated. For more information, reference is made to the relevant section in the Aeronautical Information Publication.",
        "city:en": "Miyaneh",
        "province:en": "East Azerbaijan",
        "name:ar": "إشعار للطيران · قيود المجال الجوي · ميانه (OID124)",
        "description:ar": "تم تفعيل المنطقة المحددة. وللمزيد من المعلومات، يُرجى الرجوع إلى القسم ذي الصلة في دليل معلومات الطيران.",
        "city:ar": "مقاطعة ميانه",
        "province:ar": "أذربيجان الشرقية",
        "name:tr": "Havacılık Bildirimi · Hava Sahası Kısıtlaması · Miyane (OID124)",
        "description:tr": "Belirtilen bölge aktif hale getirilmiştir. Daha fazla bilgi için Havacılık Bilgi Yayını'nın ilgili bölümüne atıfta bulunulmuştur.",
        "city:tr": "Miyane",
        "province:tr": "Doğu Azerbaycan",
        "name:ckb": "ئاگاداریی فڕۆکەوانی · سنووردارکردنی بۆشاییی ئاسمانی · میانە (OID124)",
        "description:ckb": "ناوچەی دیاریکراو چالاک کراوە. بۆ زانیاریی زیاتر ئاماژە بە بەشی پەیوەندیدار لە بڵاوکراوەی زانیارییەکانی فڕۆکەوانیدا کراوە.",
        "city:ckb": "شارستانی میانە",
        "province:ckb": "ئازەربایجانی ڕۆژھەڵات",
        "name:he": "הודעה לתעופה · הגבלת המרחב האווירי · מיאנה (OID124)",
        "description:he": "האזור המוגדר הופעל. למידע נוסף יש לעיין בסעיף הרלוונטי בפרסום המידע התעופתי.",
        "city:he": "מיאנה",
        "province:he": "אזרבייג'ן המזרחית",
        "id": "Mzg6bm90YW0tb2lpeC1hMjI1Mi0yNg",
        "publicId": "Mzg6bm90YW0tb2lpeC1hMjI1Mi0yNg",
        "sourceId": "notam-oiix-a2252-26",
        "layerId": 38,
        "type": "location",
        "status": "active",
        "urgency": null,
        "verificationTag": null,
        "expirationDate": "2026-10-19T18:30:00.000Z",
        "createdAt": "2026-10-10T10:47:33.108Z",
        "updatedAt": "2026-10-10T10:47:33.108Z"
      }
    },
    {
      "type": "Feature",
      "id": 95914,
      "geometry": {
        "type": "Polygon",
        "coordinates": [
          [
            [
              59.516667,
              31.216667
            ],
            [
              59.6,
              31.05
            ],
            [
              59.4,
              31.016667
            ],
            [
              59.316667,
              31.2
            ],
            [
              59.516667,
              31.216667
            ]
          ]
        ]
      },
      "properties": {
        "name:fa": "اطلاعیه هوانوردی · هشدار ناوبری · نهبندان",
        "description": "تیراندازی در محدوده مشخص‌شده انجام خواهد شد.",
        "notamNumber": "A2253/26",
        "fir": "منطقه پروازی تهران (ایران)",
        "notamCategory": "هشدار ناوبری (تیراندازی، رزمایش، پهپاد و مانند آن)",
        "validFrom": "۱۴۰۵/۰۷/۲۵، ۰۷:۰۰",
        "validTo": "۱۴۰۵/۰۸/۰۱، ۰۰:۰۰",
        "shapeSource": "محدوده‌ای با مختصات اعلام‌شده در نوتام",
        "notamSource": "FAA NMS-API",
        "date": 1792207800,
        "flBand": "از سطح زمین تا بدون محدودیت ارتفاع",
        "city": "شهرستان نهبندان",
        "province": "استان خراسان جنوبی",
        "name:en": "Aviation Notice · Navigation Warning · Nehbandan",
        "description:en": "Firing will be conducted within the designated area.",
        "city:en": "Nehbandan County",
        "province:en": "South Khorasan",
        "name:ar": "إشعار طيران · تحذير ملاحي · نهبندان",
        "description:ar": "سيتم إطلاق النار في المنطقة المحددة.",
        "city:ar": "مقاطعة نهبندان",
        "province:ar": "خراسان الجنوبية",
        "name:he": "הודעה לתעופה · אזהרת ניווט · נהבנדאן",
        "description:he": "ירי יבוצע באזור המצוין.",
        "city:he": "נהבנדאן",
        "province:he": "ח'וראסאן הדרומית",
        "name:tr": "Havacılık Duyurusu · Navigasyon Uyarısı · Nehbendan",
        "description:tr": "Belirtilen bölgede atış yapılacaktır.",
        "city:tr": "Nehbendan",
        "province:tr": "Güney Horasan",
        "name:ckb": "ئاگاداریی فڕۆکەوانی · وشیارکردنەوەی ڕێنوێنی · نەهبەندان",
        "description:ckb": "تەقەکردن لە ناوچەی دیاریکراودا ئەنجام دەدرێت.",
        "city:ckb": "شارستانی نەهبەندان",
        "province:ckb": "خوراسانی باشوور",
        "id": "Mzg6bm90YW0tb2lpeC1hMjI1My0yNg",
        "publicId": "Mzg6bm90YW0tb2lpeC1hMjI1My0yNg",
        "sourceId": "notam-oiix-a2253-26",
        "layerId": 38,
        "type": "location",
        "status": "active",
        "urgency": null,
        "verificationTag": null,
        "expirationDate": "2026-10-22T20:30:00.000Z",
        "createdAt": "2026-10-10T11:02:00.238Z",
        "updatedAt": "2026-10-10T11:02:00.238Z"
      }
    }
  ],
  "metadata": {
    "total": 20,
    "layerId": 38,
    "clustered": false,
    "simplified": false
  }
}