{
  "type": "FeatureCollection",
  "features": [
    {
      "type": "Feature",
      "id": 81762,
      "geometry": {
        "type": "Point",
        "coordinates": [
          49.6892737484,
          34.0923311038
        ]
      },
      "properties": {
        "id": "MTk6OTE2MA",
        "city": "اراک",
        "date": "1767862845",
        "name:fa": "اراک (روز دوازدهم)",
        "province": "استان مرکزی",
        "name:en": "Arak (Day 12)",
        "city:en": "Arak",
        "province:en": "Markazi",
        "name:ar": "أراك (اليوم الثاني عشر)",
        "city:ar": "أراك",
        "province:ar": "المركزية",
        "name:he": "אראכ (היום ה-12)",
        "city:he": "אראכ",
        "province:he": "מרכזי",
        "publicId": "MTk6OTE2MA",
        "sourceId": "9160",
        "layerId": 19,
        "type": "event",
        "status": "active",
        "urgency": null,
        "verificationTag": null,
        "expirationDate": null,
        "createdAt": "2026-03-11T21:00:47.576Z",
        "updatedAt": "2026-03-11T21:00:47.576Z"
      }
    },
    {
      "type": "Feature",
      "id": 81763,
      "geometry": {
        "type": "Point",
        "coordinates": [
          48.29709998131,
          38.25159458494
        ]
      },
      "properties": {
        "id": "MTk6OTE1MA",
        "city": "اردبیل",
        "date": "1767862845",
        "name:fa": "اردبیل (روز دوازدهم)",
        "province": "استان اردبیل",
        "name:en": "Ardabil (Day 12)",
        "city:en": "Ardabil",
        "province:en": "Ardabil",
        "name:ar": "أردبيل (اليوم الثاني عشر)",
        "city:ar": "أردبيل",
        "province:ar": "أردبيل",
        "name:he": "ארדביל (היום ה-12)",
        "city:he": "ארדביל",
        "province:he": "ארדביל",
        "publicId": "MTk6OTE1MA",
        "sourceId": "9150",
        "layerId": 19,
        "type": "event",
        "status": "active",
        "urgency": null,
        "verificationTag": null,
        "expirationDate": null,
        "createdAt": "2026-03-11T21:00:47.576Z",
        "updatedAt": "2026-03-11T21:00:47.576Z"
      }
    },
    {
      "type": "Feature",
      "id": 81764,
      "geometry": {
        "type": "Point",
        "coordinates": [
          46.18377668381,
          35.52132933165
        ]
      },
      "properties": {
        "id": "MTk6OTE3Ng",
        "city": "مریوان",
        "date": "1767862845",
        "name:fa": "مریوان (روز دوازدهم)",
        "province": "استان کردستان",
        "name:en": "Marivan (Day 12)",
        "city:en": "Marivan",
        "province:en": "Kurdistan",
        "name:ar": "مريوان (اليوم الثاني عشر)",
        "city:ar": "مريوان",
        "province:ar": "كردستان",
        "name:he": "מריוואן (היום ה-12)",
        "city:he": "מריוואן",
        "province:he": "כורדיסטאן",
        "publicId": "MTk6OTE3Ng",
        "sourceId": "9176",
        "layerId": 19,
        "type": "event",
        "status": "active",
        "urgency": null,
        "verificationTag": null,
        "expirationDate": null,
        "createdAt": "2026-03-11T21:00:47.577Z",
        "updatedAt": "2026-03-11T21:00:47.577Z"
      }
    },
    {
      "type": "Feature",
      "id": 81765,
      "geometry": {
        "type": "Point",
        "coordinates": [
          51.65020461559,
          29.61969155984
        ]
      },
      "properties": {
        "id": "MTk6OTE0NA",
        "city": "كازرون",
        "date": "1767862845",
        "name:fa": "کازرون (روز دوازدهم)",
        "province": "استان فارس",
        "name:en": "Kazerun (Day 12)",
        "city:en": "Kazerun",
        "province:en": "Fars",
        "name:ar": "كازرون (اليوم الثاني عشر)",
        "city:ar": "كازرون",
        "province:ar": "فارس",
        "name:he": "כאזרון (היום ה-12)",
        "city:he": "כאזרון",
        "province:he": "פארס",
        "publicId": "MTk6OTE0NA",
        "sourceId": "9144",
        "layerId": 19,
        "type": "event",
        "status": "active",
        "urgency": null,
        "verificationTag": null,
        "expirationDate": null,
        "createdAt": "2026-03-11T21:00:47.577Z",
        "updatedAt": "2026-03-11T21:00:47.577Z"
      }
    },
    {
      "type": "Feature",
      "id": 81766,
      "geometry": {
        "type": "Point",
        "coordinates": [
          58.78955832481,
          36.21187028546
        ]
      },
      "properties": {
        "id": "MTk6OTE0Nw",
        "city": "نیشابور",
        "date": "1767862845",
        "name:fa": "نیشابور (روز دوازدهم)",
        "province": "استان خراسان رضوی",
        "name:en": "Nishapur (Day 12)",
        "city:en": "Nishapur",
        "province:en": "Razavi Khorasan",
        "name:ar": "نيسابور (اليوم الثاني عشر)",
        "city:ar": "نيسابور",
        "province:ar": "خراسان رضوي",
        "name:he": "נישאפור (היום ה-12)",
        "city:he": "נישאפור",
        "province:he": "ח'וראסאן רזאווי",
        "publicId": "MTk6OTE0Nw",
        "sourceId": "9147",
        "layerId": 19,
        "type": "event",
        "status": "active",
        "urgency": null,
        "verificationTag": null,
        "expirationDate": null,
        "createdAt": "2026-03-11T21:00:47.578Z",
        "updatedAt": "2026-03-11T21:00:47.578Z"
      }
    },
    {
      "type": "Feature",
      "id": 81767,
      "geometry": {
        "type": "Point",
        "coordinates": [
          46.53139110088,
          34.11063204227
        ]
      },
      "properties": {
        "id": "MTk6OTE2NQ",
        "city": "اسلام آباد غرب",
        "date": "1767862845",
        "name:fa": "اسلام‌آباد غرب (روز دوازدهم)",
        "province": "استان کرمانشاه",
        "name:en": "Islamabad-e Gharb (Day 12)",
        "city:en": "Islamabad-e Gharb",
        "province:en": "Kermanshah",
        "name:ar": "إسلام آباد غرب (اليوم الثاني عشر)",
        "city:ar": "إسلام آباد غرب",
        "province:ar": "كرمانشاه",
        "name:he": "אסלאמאבאד-א ע'רב (היום ה-12)",
        "city:he": "אסלאמאבאד-א ע'רב",
        "province:he": "כרמאנשאה",
        "publicId": "MTk6OTE2NQ",
        "sourceId": "9165",
        "layerId": 19,
        "type": "event",
        "status": "active",
        "urgency": null,
        "verificationTag": null,
        "expirationDate": null,
        "createdAt": "2026-03-11T21:00:47.578Z",
        "updatedAt": "2026-03-11T21:00:47.578Z"
      }
    },
    {
      "type": "Feature",
      "id": 81768,
      "geometry": {
        "type": "Point",
        "coordinates": [
          46.35603896141,
          35.04503553187
        ]
      },
      "properties": {
        "id": "MTk6OTE3Mw",
        "city": "پاوه",
        "date": "1767862845",
        "name:fa": "پاوه (روز دوازدهم)",
        "province": "استان کرمانشاه",
        "name:en": "Paveh (Day 12)",
        "city:en": "Paveh",
        "province:en": "Kermanshah",
        "name:ar": "باوه (اليوم الثاني عشر)",
        "city:ar": "باوه",
        "province:ar": "كرمانشاه",
        "name:he": "פאווע (היום ה-12)",
        "city:he": "פאווע",
        "province:he": "כרמאנשאה",
        "publicId": "MTk6OTE3Mw",
        "sourceId": "9173",
        "layerId": 19,
        "type": "event",
        "status": "active",
        "urgency": null,
        "verificationTag": null,
        "expirationDate": null,
        "createdAt": "2026-03-11T21:00:47.578Z",
        "updatedAt": "2026-03-11T21:00:47.578Z"
      }
    },
    {
      "type": "Feature",
      "id": 81769,
      "geometry": {
        "type": "Point",
        "coordinates": [
          51.39833433151,
          35.71474064305
        ]
      },
      "properties": {
        "id": "MTk6OTE1NA",
        "city": "تهران",
        "date": "1767862845",
        "name:fa": "تهران (روز دوازدهم)",
        "province": "استان تهران",
        "name:en": "Tehran (Day 12)",
        "city:en": "Tehran",
        "province:en": "Tehran",
        "name:ar": "طهران (اليوم الثاني عشر)",
        "city:ar": "طهران",
        "province:ar": "طهران",
        "name:he": "טהראן (היום ה-12)",
        "city:he": "טהראן",
        "province:he": "טהראן",
        "publicId": "MTk6OTE1NA",
        "sourceId": "9154",
        "layerId": 19,
        "type": "event",
        "status": "active",
        "urgency": null,
        "verificationTag": null,
        "expirationDate": null,
        "createdAt": "2026-03-11T21:00:47.579Z",
        "updatedAt": "2026-03-11T21:00:47.579Z"
      }
    },
    {
      "type": "Feature",
      "id": 81770,
      "geometry": {
        "type": "Point",
        "coordinates": [
          45.09939455509,
          37.0398321311
        ]
      },
      "properties": {
        "id": "MTk6OTE1Ng",
        "city": "اشنویه",
        "date": "1767862845",
        "name:fa": "اشنویه (روز دوازدهم)",
        "province": "استان آذربایجان غربی",
        "name:en": "Oshnavieh (Day 12)",
        "city:en": "Oshnavieh",
        "province:en": "West Azerbaijan",
        "name:ar": "أشنويه (اليوم الثاني عشر)",
        "city:ar": "أشنويه",
        "province:ar": "أذربيجان الغربية",
        "name:he": "אושנוויה (היום ה-12)",
        "city:he": "אושנוויה",
        "province:he": "אזרבייג'ן המערבית",
        "publicId": "MTk6OTE1Ng",
        "sourceId": "9156",
        "layerId": 19,
        "type": "event",
        "status": "active",
        "urgency": null,
        "verificationTag": null,
        "expirationDate": null,
        "createdAt": "2026-03-11T21:00:47.579Z",
        "updatedAt": "2026-03-11T21:00:47.579Z"
      }
    },
    {
      "type": "Feature",
      "id": 81771,
      "geometry": {
        "type": "Point",
        "coordinates": [
          48.74865523338,
          33.89542605405
        ]
      },
      "properties": {
        "id": "MTk6OTE2MQ",
        "city": "بروجرد",
        "date": "1767862845",
        "name:fa": "بروجرد (روز دوازدهم)",
        "province": "استان لرستان",
        "name:en": "Borujerd (Day 12)",
        "city:en": "Borujerd",
        "province:en": "Lorestan",
        "name:ar": "بروجرد (اليوم الثاني عشر)",
        "city:ar": "بروجرد",
        "province:ar": "لرستان",
        "name:he": "בורוג'רד (היום ה-12)",
        "province:he": "לורסתאן",
        "publicId": "MTk6OTE2MQ",
        "sourceId": "9161",
        "layerId": 19,
        "type": "event",
        "status": "active",
        "urgency": null,
        "verificationTag": null,
        "expirationDate": null,
        "createdAt": "2026-03-11T21:00:47.580Z",
        "updatedAt": "2026-03-11T21:00:47.580Z"
      }
    },
    {
      "type": "Feature",
      "id": 81772,
      "geometry": {
        "type": "Point",
        "coordinates": [
          46.65194032431,
          34.71545949866
        ]
      },
      "properties": {
        "id": "MTk6OTE3MQ",
        "city": "روانسر",
        "date": "1767862845",
        "name:fa": "روانسر (روز دوازدهم)",
        "province": "استان کرمانشاه",
        "name:en": "Ravansar (Day 12)",
        "city:en": "Ravansar",
        "province:en": "Kermanshah",
        "name:ar": "روانسر (اليوم الثاني عشر)",
        "city:ar": "روانسر",
        "province:ar": "كرمانشاه",
        "name:he": "רוואנסר (היום ה-12)",
        "province:he": "כרמאנשאה",
        "publicId": "MTk6OTE3MQ",
        "sourceId": "9171",
        "layerId": 19,
        "type": "event",
        "status": "active",
        "urgency": null,
        "verificationTag": null,
        "expirationDate": null,
        "createdAt": "2026-03-11T21:00:47.580Z",
        "updatedAt": "2026-03-11T21:00:47.580Z"
      }
    },
    {
      "type": "Feature",
      "id": 81773,
      "geometry": {
        "type": "Point",
        "coordinates": [
          50.95870954514,
          35.8442563424
        ]
      },
      "properties": {
        "id": "MTk6OTE1Mw",
        "city": "کرج",
        "date": "1767862845",
        "name:fa": "کرج (روز دوازدهم)",
        "province": "استان البرز",
        "name:en": "Karaj (Day 12)",
        "city:en": "Karaj",
        "province:en": "Alborz",
        "name:ar": "كرج (اليوم الثاني عشر)",
        "city:ar": "كرج",
        "province:ar": "ألبرز",
        "name:he": "כראג' (היום ה-12)",
        "city:he": "כראג'",
        "province:he": "אלבורז",
        "publicId": "MTk6OTE1Mw",
        "sourceId": "9153",
        "layerId": 19,
        "type": "event",
        "status": "active",
        "urgency": null,
        "verificationTag": null,
        "expirationDate": null,
        "createdAt": "2026-03-11T21:00:47.580Z",
        "updatedAt": "2026-03-11T21:00:47.580Z"
      }
    },
    {
      "type": "Feature",
      "id": 81774,
      "geometry": {
        "type": "Point",
        "coordinates": [
          46.29261008263,
          38.07397395979
        ]
      },
      "properties": {
        "id": "MTk6OTE1MQ",
        "city": "تبریز",
        "date": "1767862845",
        "name:fa": "تبریز (روز دوازدهم)",
        "province": "استان آذربایجان شرقی",
        "name:en": "Tabriz (Day 12)",
        "city:en": "Tabriz",
        "province:en": "East Azerbaijan",
        "name:ar": "تبريز (اليوم الثاني عشر)",
        "city:ar": "تبريز",
        "province:ar": "أذربيجان الشرقية",
        "name:he": "תבריז (היום ה-12)",
        "city:he": "תבריז",
        "province:he": "אזרבייג'ן המזרחית",
        "publicId": "MTk6OTE1MQ",
        "sourceId": "9151",
        "layerId": 19,
        "type": "event",
        "status": "active",
        "urgency": null,
        "verificationTag": null,
        "expirationDate": null,
        "createdAt": "2026-03-11T21:00:47.581Z",
        "updatedAt": "2026-03-11T21:00:47.581Z"
      }
    },
    {
      "type": "Feature",
      "id": 81775,
      "geometry": {
        "type": "Point",
        "coordinates": [
          52.34624854088,
          36.47216722186
        ]
      },
      "properties": {
        "id": "MTk6OTE0OQ",
        "city": "آمل",
        "date": "1767862845",
        "name:fa": "آمل (روز دوازدهم)",
        "province": "استان مازندران",
        "name:en": "Amol (Day 12)",
        "city:en": "Amol",
        "province:en": "Mazandaran",
        "name:ar": "آمل (اليوم الثاني عشر)",
        "city:ar": "آمل",
        "province:ar": "مازندران",
        "name:he": "אמול (היום ה-12)",
        "province:he": "מאזנדראן",
        "publicId": "MTk6OTE0OQ",
        "sourceId": "9149",
        "layerId": 19,
        "type": "event",
        "status": "active",
        "urgency": null,
        "verificationTag": null,
        "expirationDate": null,
        "createdAt": "2026-03-11T21:00:47.581Z",
        "updatedAt": "2026-03-11T21:00:47.581Z"
      }
    },
    {
      "type": "Feature",
      "id": 81776,
      "geometry": {
        "type": "Point",
        "coordinates": [
          51.20907774925,
          29.26955401751
        ]
      },
      "properties": {
        "id": "MTk6OTE0Mw",
        "city": "برازجان",
        "date": "1767862845",
        "name:fa": "برازجان (روز دوازدهم)",
        "province": "استان بوشهر",
        "name:en": "Borazjan (Day 12)",
        "city:en": "Borazjan",
        "province:en": "Bushehr",
        "name:ar": "برازجان (اليوم الثاني عشر)",
        "city:ar": "برازجان",
        "province:ar": "بوشهر",
        "name:he": "בראזג'אן (היום ה-12)",
        "city:he": "בראזג'אן",
        "province:he": "בושהר",
        "publicId": "MTk6OTE0Mw",
        "sourceId": "9143",
        "layerId": 19,
        "type": "event",
        "status": "active",
        "urgency": null,
        "verificationTag": null,
        "expirationDate": null,
        "createdAt": "2026-03-11T21:00:47.582Z",
        "updatedAt": "2026-03-11T21:00:47.582Z"
      }
    },
    {
      "type": "Feature",
      "id": 81777,
      "geometry": {
        "type": "Point",
        "coordinates": [
          45.06390356541,
          37.54682309997
        ]
      },
      "properties": {
        "id": "MTk6OTE1NQ",
        "city": "ارومیه",
        "date": "1767862845",
        "name:fa": "ارومیه (روز دوازدهم)",
        "province": "استان آذربایجان غربی",
        "name:en": "Urmia (Day 12)",
        "city:en": "Urmia",
        "province:en": "West Azerbaijan",
        "name:ar": "أورمية (اليوم الثاني عشر)",
        "city:ar": "أورمية",
        "province:ar": "أذربيجان الغربية",
        "name:he": "אורמיה (היום ה-12)",
        "city:he": "אורמיה",
        "province:he": "אזרבייג'ן המערבית",
        "publicId": "MTk6OTE1NQ",
        "sourceId": "9155",
        "layerId": 19,
        "type": "event",
        "status": "active",
        "urgency": null,
        "verificationTag": null,
        "expirationDate": null,
        "createdAt": "2026-03-11T21:00:47.582Z",
        "updatedAt": "2026-03-11T21:00:47.582Z"
      }
    },
    {
      "type": "Feature",
      "id": 81778,
      "geometry": {
        "type": "Point",
        "coordinates": [
          45.88525763512,
          35.99661875782
        ]
      },
      "properties": {
        "id": "MTk6OTE3OQ",
        "city": "بانه",
        "date": "1767862845",
        "name:fa": "بانه (روز دوازدهم)",
        "province": "استان کردستان",
        "name:en": "Baneh (Day 12)",
        "city:en": "Baneh",
        "province:en": "Kurdistan",
        "name:ar": "بانه (اليوم الثاني عشر)",
        "city:ar": "بانه",
        "province:ar": "كردستان",
        "name:he": "באנה (היום ה-12)",
        "city:he": "באנה",
        "province:he": "כורדיסטאן",
        "publicId": "MTk6OTE3OQ",
        "sourceId": "9179",
        "layerId": 19,
        "type": "event",
        "status": "active",
        "urgency": null,
        "verificationTag": null,
        "expirationDate": null,
        "createdAt": "2026-03-11T21:00:47.583Z",
        "updatedAt": "2026-03-11T21:00:47.583Z"
      }
    },
    {
      "type": "Feature",
      "id": 81779,
      "geometry": {
        "type": "Point",
        "coordinates": [
          46.20961180687,
          36.52136312787
        ]
      },
      "properties": {
        "id": "MTk6OTE1OQ",
        "city": "بوکان",
        "date": "1767862845",
        "name:fa": "بوکان (روز دوازدهم)",
        "province": "استان آذربایجان غربی",
        "name:en": "Bokan (Day 12)",
        "city:en": "Bokan",
        "province:en": "West Azerbaijan",
        "name:ar": "بوكان (اليوم الثاني عشر)",
        "city:ar": "بوكان",
        "province:ar": "أذربيجان الغربية",
        "name:he": "בוקאן (היום ה-12)",
        "city:he": "בוקאן",
        "province:he": "אזרבייג'ן המערבית",
        "publicId": "MTk6OTE1OQ",
        "sourceId": "9159",
        "layerId": 19,
        "type": "event",
        "status": "active",
        "urgency": null,
        "verificationTag": null,
        "expirationDate": null,
        "createdAt": "2026-03-11T21:00:47.583Z",
        "updatedAt": "2026-03-11T21:00:47.583Z"
      }
    },
    {
      "type": "Feature",
      "id": 81780,
      "geometry": {
        "type": "Point",
        "coordinates": [
          46.9364261198,
          34.79741791383
        ]
      },
      "properties": {
        "id": "MTk6OTE3Mg",
        "city": "كامياران",
        "date": "1767862845",
        "name:fa": "کامیاران (روز دوازدهم)",
        "province": "استان کردستان",
        "name:en": "Kamyaran (Day 12)",
        "city:en": "Kamyaran",
        "province:en": "Kurdistan",
        "name:ar": "كامياران (اليوم الثاني عشر)",
        "city:ar": "كامياران",
        "province:ar": "كردستان",
        "name:he": "כאמיאראן (היום ה-12)",
        "city:he": "כאמיאראן",
        "province:he": "כורדיסטאן",
        "publicId": "MTk6OTE3Mg",
        "sourceId": "9172",
        "layerId": 19,
        "type": "event",
        "status": "active",
        "urgency": null,
        "verificationTag": null,
        "expirationDate": null,
        "createdAt": "2026-03-11T21:00:47.583Z",
        "updatedAt": "2026-03-11T21:00:47.583Z"
      }
    },
    {
      "type": "Feature",
      "id": 81781,
      "geometry": {
        "type": "Point",
        "coordinates": [
          46.26892081261,
          36.2425426658
        ]
      },
      "properties": {
        "id": "MTk6OTE3OA",
        "city": "سقز",
        "date": "1767862845",
        "name:fa": "سقز (روز دوازدهم)",
        "province": "استان کردستان",
        "name:en": "Saqqez (Day 12)",
        "city:en": "Saqqez",
        "province:en": "Kurdistan",
        "name:ar": "سقز (اليوم الثاني عشر)",
        "city:ar": "سقز",
        "province:ar": "كردستان",
        "name:he": "סקז (היום ה-12)",
        "province:he": "כורדיסטאן",
        "publicId": "MTk6OTE3OA",
        "sourceId": "9178",
        "layerId": 19,
        "type": "event",
        "status": "active",
        "urgency": null,
        "verificationTag": null,
        "expirationDate": null,
        "createdAt": "2026-03-11T21:00:47.584Z",
        "updatedAt": "2026-03-11T21:00:47.584Z"
      }
    },
    {
      "type": "Feature",
      "id": 81782,
      "geometry": {
        "type": "Point",
        "coordinates": [
          51.50660987377,
          32.69771911677
        ]
      },
      "properties": {
        "id": "MTk6OTE0Ng",
        "city": "خمینی شهر",
        "date": "1767862845",
        "name:fa": "خمینی‌شهر (روز دوازدهم)",
        "province": "استان اصفهان",
        "name:en": "Khomeyni Shahr (Day 12)",
        "city:en": "Khomeyni Shahr",
        "province:en": "Isfahan",
        "name:ar": "خميني شهر (اليوم الثاني عشر)",
        "city:ar": "خميني شهر",
        "province:ar": "أصفهان",
        "name:he": "ח'ומייני שהר (היום ה-12)",
        "city:he": "ח'ומייני שהר",
        "province:he": "אספהאן",
        "publicId": "MTk6OTE0Ng",
        "sourceId": "9146",
        "layerId": 19,
        "type": "event",
        "status": "active",
        "urgency": null,
        "verificationTag": null,
        "expirationDate": null,
        "createdAt": "2026-03-11T21:00:47.584Z",
        "updatedAt": "2026-03-11T21:00:47.584Z"
      }
    },
    {
      "type": "Feature",
      "id": 81783,
      "geometry": {
        "type": "Point",
        "coordinates": [
          47.80097720861,
          35.16782708477
        ]
      },
      "properties": {
        "id": "MTk6OTE2Nw",
        "city": "قروه",
        "date": "1767862845",
        "name:fa": "قروه (روز دوازدهم)",
        "province": "استان کردستان",
        "name:en": "Qorveh (Day 12)",
        "city:en": "Qorveh",
        "province:en": "Kurdistan",
        "name:ar": "قروه (اليوم الثاني عشر)",
        "city:ar": "قروه",
        "province:ar": "كردستان",
        "name:he": "קורווה (היום ה-12)",
        "city:he": "קורווה",
        "province:he": "כורדיסטאן",
        "publicId": "MTk6OTE2Nw",
        "sourceId": "9167",
        "layerId": 19,
        "type": "event",
        "status": "active",
        "urgency": null,
        "verificationTag": null,
        "expirationDate": null,
        "createdAt": "2026-03-11T21:00:47.584Z",
        "updatedAt": "2026-03-11T21:00:47.584Z"
      }
    },
    {
      "type": "Feature",
      "id": 81784,
      "geometry": {
        "type": "Point",
        "coordinates": [
          45.85132240176,
          34.51083567078
        ]
      },
      "properties": {
        "id": "MTk6OTE3MA",
        "city": "سرابله",
        "date": "1767862845",
        "name:fa": "سرابله (روز دوازدهم)",
        "province": "استان کرمانشاه",
        "name:en": "Sarableh (Day 12)",
        "city:en": "Sarableh",
        "province:en": "Kermanshah",
        "name:ar": "سرابله (اليوم الثاني عشر)",
        "city:ar": "سرابله",
        "province:ar": "كرمانشاه",
        "name:he": "סראבלה (היום ה-12)",
        "city:he": "סראבלה",
        "province:he": "כרמאנשאה",
        "publicId": "MTk6OTE3MA",
        "sourceId": "9170",
        "layerId": 19,
        "type": "event",
        "status": "active",
        "urgency": null,
        "verificationTag": null,
        "expirationDate": null,
        "createdAt": "2026-03-11T21:00:47.585Z",
        "updatedAt": "2026-03-11T21:00:47.585Z"
      }
    },
    {
      "type": "Feature",
      "id": 81785,
      "geometry": {
        "type": "Point",
        "coordinates": [
          46.40727988243,
          33.63491674825
        ]
      },
      "properties": {
        "id": "MTk6OTE2NA",
        "city": "ایلام",
        "date": "1767862845",
        "name:fa": "ایلام (روز دوازدهم)",
        "province": "استان ایلام",
        "name:en": "Ilam (Day 12)",
        "city:en": "Ilam",
        "province:en": "Ilam",
        "name:ar": "إيلام (اليوم الثاني عشر)",
        "city:ar": "إيلام",
        "province:ar": "إيلام",
        "name:he": "אילאם (היום ה-12)",
        "city:he": "אילאם",
        "province:he": "אילאם",
        "publicId": "MTk6OTE2NA",
        "sourceId": "9164",
        "layerId": 19,
        "type": "event",
        "status": "active",
        "urgency": null,
        "verificationTag": null,
        "expirationDate": null,
        "createdAt": "2026-03-11T21:00:47.585Z",
        "updatedAt": "2026-03-11T21:00:47.585Z"
      }
    },
    {
      "type": "Feature",
      "id": 81786,
      "geometry": {
        "type": "Point",
        "coordinates": [
          45.72662114024,
          36.76602248084
        ]
      },
      "properties": {
        "id": "MTk6OTE1OA",
        "city": "مهاباد",
        "date": "1767862845",
        "name:fa": "مهاباد (روز دوازدهم)",
        "province": "استان آذربایجان غربی",
        "name:en": "Mahabad (Day 12)",
        "city:en": "Mahabad",
        "province:en": "West Azerbaijan",
        "name:ar": "مهاباد (اليوم الثاني عشر)",
        "city:ar": "مهاباد",
        "province:ar": "أذربيجان الغربية",
        "name:he": "מהאבאד (היום ה-12)",
        "city:he": "מהאבאד",
        "province:he": "אזרבייג'ן המערבית",
        "publicId": "MTk6OTE1OA",
        "sourceId": "9158",
        "layerId": 19,
        "type": "event",
        "status": "active",
        "urgency": null,
        "verificationTag": null,
        "expirationDate": null,
        "createdAt": "2026-03-11T21:00:47.586Z",
        "updatedAt": "2026-03-11T21:00:47.586Z"
      }
    },
    {
      "type": "Feature",
      "id": 81787,
      "geometry": {
        "type": "Point",
        "coordinates": [
          57.67620559216,
          36.21259738774
        ]
      },
      "properties": {
        "id": "MTk6OTE0OA",
        "city": "سبزوار",
        "date": "1767862845",
        "name:fa": "سبزوار (روز دوازدهم)",
        "province": "استان خراسان رضوی",
        "name:en": "Sabzevar (Day 12)",
        "city:en": "Sabzevar",
        "province:en": "Razavi Khorasan",
        "name:ar": "سبزوار (اليوم الثاني عشر)",
        "city:ar": "سبزوار",
        "province:ar": "خراسان رضوي",
        "name:he": "סבזוואר (היום ה-12)",
        "city:he": "סבזוואר",
        "province:he": "ח'וראסאן רזאווי",
        "publicId": "MTk6OTE0OA",
        "sourceId": "9148",
        "layerId": 19,
        "type": "event",
        "status": "active",
        "urgency": null,
        "verificationTag": null,
        "expirationDate": null,
        "createdAt": "2026-03-11T21:00:47.586Z",
        "updatedAt": "2026-03-11T21:00:47.586Z"
      }
    },
    {
      "type": "Feature",
      "id": 81788,
      "geometry": {
        "type": "Point",
        "coordinates": [
          45.57832709312,
          34.51645826973
        ]
      },
      "properties": {
        "id": "MTk6OTE2OQ",
        "city": "قصرشیرین",
        "date": "1767862845",
        "name:fa": "قصر شیرین (روز دوازدهم)",
        "province": "استان کرمانشاه",
        "name:en": "Qasr-e Shirin (Day 12)",
        "city:en": "Qasr-e Shirin",
        "province:en": "Kermanshah",
        "name:ar": "قصر شيرين (اليوم الثاني عشر)",
        "city:ar": "قصر شيرين",
        "province:ar": "كرمانشاه",
        "name:he": "קסר שירין (היום ה-12)",
        "city:he": "קסר שירין",
        "province:he": "כרמאנשאה",
        "publicId": "MTk6OTE2OQ",
        "sourceId": "9169",
        "layerId": 19,
        "type": "event",
        "status": "active",
        "urgency": null,
        "verificationTag": null,
        "expirationDate": null,
        "createdAt": "2026-03-11T21:00:47.587Z",
        "updatedAt": "2026-03-11T21:00:47.587Z"
      }
    },
    {
      "type": "Feature",
      "id": 81789,
      "geometry": {
        "type": "Point",
        "coordinates": [
          47.6016139555,
          35.87291610753
        ]
      },
      "properties": {
        "id": "MTk6OTE2OA",
        "city": "بیجار",
        "date": "1767862845",
        "name:fa": "بیجار (روز دوازدهم)",
        "province": "استان کردستان",
        "name:en": "Bijar (Day 12)",
        "city:en": "Bijar",
        "province:en": "Kurdistan",
        "name:ar": "بيجار (اليوم الثاني عشر)",
        "city:ar": "بيجار",
        "province:ar": "كردستان",
        "name:he": "ביג'אר (היום ה-12)",
        "city:he": "ביג'אר",
        "province:he": "כורדיסטאן",
        "publicId": "MTk6OTE2OA",
        "sourceId": "9168",
        "layerId": 19,
        "type": "event",
        "status": "active",
        "urgency": null,
        "verificationTag": null,
        "expirationDate": null,
        "createdAt": "2026-03-11T21:00:47.587Z",
        "updatedAt": "2026-03-11T21:00:47.587Z"
      }
    },
    {
      "type": "Feature",
      "id": 81790,
      "geometry": {
        "type": "Point",
        "coordinates": [
          47.06903440475,
          35.32520996575
        ]
      },
      "properties": {
        "id": "MTk6OTE3NQ",
        "city": "نایی سر",
        "date": "1767862845",
        "name:fa": "نایسر (روز دوازدهم)",
        "province": "استان کردستان",
        "name:en": "Nayser (Day 12)",
        "city:en": "Nayser",
        "province:en": "Kurdistan",
        "name:ar": "نايسر (اليوم الثاني عشر)",
        "city:ar": "نايسر",
        "province:ar": "كردستان",
        "name:he": "נאיסר (היום השנים-עשר)",
        "province:he": "כורדיסטאן",
        "publicId": "MTk6OTE3NQ",
        "sourceId": "9175",
        "layerId": 19,
        "type": "event",
        "status": "active",
        "urgency": null,
        "verificationTag": null,
        "expirationDate": null,
        "createdAt": "2026-03-11T21:00:47.588Z",
        "updatedAt": "2026-03-11T21:00:47.588Z"
      }
    },
    {
      "type": "Feature",
      "id": 81791,
      "geometry": {
        "type": "Point",
        "coordinates": [
          48.48918897629,
          36.67571630376
        ]
      },
      "properties": {
        "id": "MTk6OTE1Mg",
        "city": "زنجان",
        "date": "1767862845",
        "name:fa": "زنجان (روز دوازدهم)",
        "province": "استان زنجان",
        "name:en": "Zanjan (Day 12)",
        "city:en": "Zanjan",
        "province:en": "Zanjan",
        "name:ar": "زنجان (اليوم الثاني عشر)",
        "city:ar": "زنجان",
        "province:ar": "زنجان",
        "name:he": "זנג'אן (היום ה-12)",
        "city:he": "זנג'אן",
        "province:he": "זנג'אן",
        "publicId": "MTk6OTE1Mg",
        "sourceId": "9152",
        "layerId": 19,
        "type": "event",
        "status": "active",
        "urgency": null,
        "verificationTag": null,
        "expirationDate": null,
        "createdAt": "2026-03-11T21:00:47.588Z",
        "updatedAt": "2026-03-11T21:00:47.588Z"
      }
    },
    {
      "type": "Feature",
      "id": 81792,
      "geometry": {
        "type": "Point",
        "coordinates": [
          51.64930326462,
          32.6739164996
        ]
      },
      "properties": {
        "id": "MTk6OTE0NQ",
        "city": "اصفهان",
        "date": "1767862845",
        "name:fa": "اصفهان (روز دوازدهم)",
        "province": "استان اصفهان",
        "name:en": "Isfahan (Day 12)",
        "city:en": "Isfahan",
        "province:en": "Isfahan",
        "name:ar": "أصفهان (اليوم الثاني عشر)",
        "city:ar": "أصفهان",
        "province:ar": "أصفهان",
        "name:he": "אספהאן (היום ה-12)",
        "city:he": "אספהאן",
        "province:he": "אספהאן",
        "publicId": "MTk6OTE0NQ",
        "sourceId": "9145",
        "layerId": 19,
        "type": "event",
        "status": "active",
        "urgency": null,
        "verificationTag": null,
        "expirationDate": null,
        "createdAt": "2026-03-11T21:00:47.589Z",
        "updatedAt": "2026-03-11T21:00:47.589Z"
      }
    },
    {
      "type": "Feature",
      "id": 81793,
      "geometry": {
        "type": "Point",
        "coordinates": [
          56.27853868246,
          27.1923308424
        ]
      },
      "properties": {
        "id": "MTk6OTE0Mg",
        "city": "بندر عباس",
        "date": "1767862845",
        "name:fa": "بندرعباس (روز دوازدهم)",
        "province": "استان هرمزگان",
        "name:en": "Bandar Abbas (Day 12)",
        "city:en": "Bandar Abbas",
        "province:en": "Hormozgan",
        "name:ar": "بندر عباس (اليوم الثاني عشر)",
        "city:ar": "بندر عباس",
        "province:ar": "هرمزكان",
        "name:he": "בנדר עבאס (היום ה-12)",
        "city:he": "בנדר עבאס",
        "province:he": "הורמוזגאן",
        "publicId": "MTk6OTE0Mg",
        "sourceId": "9142",
        "layerId": 19,
        "type": "event",
        "status": "active",
        "urgency": null,
        "verificationTag": null,
        "expirationDate": null,
        "createdAt": "2026-03-11T21:00:47.589Z",
        "updatedAt": "2026-03-11T21:00:47.589Z"
      }
    },
    {
      "type": "Feature",
      "id": 81794,
      "geometry": {
        "type": "Point",
        "coordinates": [
          47.07186690331,
          34.32713493899
        ]
      },
      "properties": {
        "id": "MTk6OTE2Ng",
        "city": "کرمانشاه",
        "date": "1767862845",
        "name:fa": "کرمانشاه (روز دوازدهم)",
        "province": "استان کرمانشاه",
        "name:en": "Kermanshah (Day 12)",
        "city:en": "Kermanshah",
        "province:en": "Kermanshah",
        "name:ar": "كرمانشاه (اليوم الثاني عشر)",
        "city:ar": "كرمانشاه",
        "province:ar": "كرمانشاه",
        "name:he": "כרמאנשאה (היום ה-12)",
        "province:he": "כרמאנשאה",
        "publicId": "MTk6OTE2Ng",
        "sourceId": "9166",
        "layerId": 19,
        "type": "event",
        "status": "active",
        "urgency": null,
        "verificationTag": null,
        "expirationDate": null,
        "createdAt": "2026-03-11T21:00:47.590Z",
        "updatedAt": "2026-03-11T21:00:47.590Z"
      }
    },
    {
      "type": "Feature",
      "id": 81795,
      "geometry": {
        "type": "Point",
        "coordinates": [
          57.32685323238,
          37.47930262012
        ]
      },
      "properties": {
        "id": "MTk6OTE4MQ",
        "city": "بجنورد",
        "date": "1767862845",
        "name:fa": "بجنورد (روز دوازدهم)",
        "province": "استان خراسان شمالی",
        "name:en": "Bojnourd (Day 12)",
        "city:en": "Bojnourd",
        "province:en": "North Khorasan",
        "name:ar": "بجنورد (اليوم الثاني عشر)",
        "city:ar": "بجنورد",
        "province:ar": "خراسان الشمالية",
        "name:he": "בוג'נורד (היום השנים-עשר)",
        "city:he": "בוג'נורד",
        "province:he": "ח'וראסאן הצפונית",
        "publicId": "MTk6OTE4MQ",
        "sourceId": "9181",
        "layerId": 19,
        "type": "event",
        "status": "active",
        "urgency": null,
        "verificationTag": null,
        "expirationDate": null,
        "createdAt": "2026-03-11T21:00:47.590Z",
        "updatedAt": "2026-03-11T21:00:47.590Z"
      }
    },
    {
      "type": "Feature",
      "id": 81796,
      "geometry": {
        "type": "Point",
        "coordinates": [
          48.10544012904,
          34.71602390394
        ]
      },
      "properties": {
        "id": "MTk6OTE2Mw",
        "city": "شهرستان اسدآباد",
        "date": "1767862845",
        "name:fa": "دهگلان (روز دوازدهم)",
        "province": "استان همدان",
        "name:en": "Dehgolan (Day 12)",
        "city:en": "Asadabad County",
        "province:en": "Hamadan",
        "name:ar": "دهكلان (اليوم الثاني عشر)",
        "city:ar": "مقاطعة اسد أباد",
        "province:ar": "همدان",
        "name:he": "דהגולאן (היום ה-12)",
        "province:he": "המדאן",
        "publicId": "MTk6OTE2Mw",
        "sourceId": "9163",
        "layerId": 19,
        "type": "event",
        "status": "active",
        "urgency": null,
        "verificationTag": null,
        "expirationDate": null,
        "createdAt": "2026-03-11T21:00:47.591Z",
        "updatedAt": "2026-03-11T21:00:47.591Z"
      }
    },
    {
      "type": "Feature",
      "id": 81797,
      "geometry": {
        "type": "Point",
        "coordinates": [
          46.99882490158,
          35.30545970842
        ]
      },
      "properties": {
        "id": "MTk6OTE3NA",
        "city": "سنندج",
        "date": "1767862845",
        "name:fa": "سنندج (روز دوازدهم)",
        "province": "استان کردستان",
        "name:en": "Sanandaj (Day 12)",
        "city:en": "Sanandaj",
        "province:en": "Kurdistan",
        "name:ar": "سنندج (اليوم الثاني عشر)",
        "city:ar": "سنندج",
        "province:ar": "كردستان",
        "name:he": "סננדג' (היום ה-12)",
        "city:he": "סננדג'",
        "province:he": "כורדיסטאן",
        "publicId": "MTk6OTE3NA",
        "sourceId": "9174",
        "layerId": 19,
        "type": "event",
        "status": "active",
        "urgency": null,
        "verificationTag": null,
        "expirationDate": null,
        "createdAt": "2026-03-11T21:00:47.591Z",
        "updatedAt": "2026-03-11T21:00:47.591Z"
      }
    },
    {
      "type": "Feature",
      "id": 81798,
      "geometry": {
        "type": "Point",
        "coordinates": [
          45.14037604809,
          36.69657149585
        ]
      },
      "properties": {
        "id": "MTk6OTE1Nw",
        "city": "پيرانشهر",
        "date": "1767862845",
        "name:fa": "پیرانشهر (روز دوازدهم)",
        "province": "استان آذربایجان غربی",
        "name:en": "Piranshahr (Day 12)",
        "city:en": "Piranshahr",
        "province:en": "West Azerbaijan",
        "name:ar": "بيرانشهر (اليوم الثاني عشر)",
        "city:ar": "بيرانشهر",
        "province:ar": "أذربيجان الغربية",
        "name:he": "פיראנשאהר (היום ה-12)",
        "province:he": "אזרבייג'ן המערבית",
        "publicId": "MTk6OTE1Nw",
        "sourceId": "9157",
        "layerId": 19,
        "type": "event",
        "status": "active",
        "urgency": null,
        "verificationTag": null,
        "expirationDate": null,
        "createdAt": "2026-03-11T21:00:47.591Z",
        "updatedAt": "2026-03-11T21:00:47.591Z"
      }
    },
    {
      "type": "Feature",
      "id": 81799,
      "geometry": {
        "type": "Point",
        "coordinates": [
          48.51277110815,
          34.79835177755
        ]
      },
      "properties": {
        "id": "MTk6OTE2Mg",
        "city": "همدان",
        "date": "1767862845",
        "name:fa": "همدان (روز دوازدهم)",
        "province": "استان همدان",
        "name:en": "Hamedan (Day 12)",
        "city:en": "Hamedan",
        "province:en": "Hamadan",
        "name:ar": "همدان (اليوم الثاني عشر)",
        "city:ar": "همدان",
        "province:ar": "همدان",
        "name:he": "המדאן (היום ה-12)",
        "city:he": "המדאן",
        "province:he": "המדאן",
        "publicId": "MTk6OTE2Mg",
        "sourceId": "9162",
        "layerId": 19,
        "type": "event",
        "status": "active",
        "urgency": null,
        "verificationTag": null,
        "expirationDate": null,
        "createdAt": "2026-03-11T21:00:47.592Z",
        "updatedAt": "2026-03-11T21:00:47.592Z"
      }
    },
    {
      "type": "Feature",
      "id": 81800,
      "geometry": {
        "type": "Point",
        "coordinates": [
          47.02753539562,
          35.91585172308
        ]
      },
      "properties": {
        "id": "MTk6OTE3Nw",
        "city": "دیواندره",
        "date": "1767862845",
        "name:fa": "دیواندره (روز دوازدهم)",
        "province": "استان کردستان",
        "name:en": "Divandarreh (Day 12)",
        "city:en": "Divandarreh",
        "province:en": "Kurdistan",
        "name:ar": "ديواندره (اليوم الثاني عشر)",
        "city:ar": "ديواندره",
        "province:ar": "كردستان",
        "name:he": "דיוואנדרה (היום ה-12)",
        "city:he": "דיוואנדרה",
        "province:he": "כורדיסטאן",
        "publicId": "MTk6OTE3Nw",
        "sourceId": "9177",
        "layerId": 19,
        "type": "event",
        "status": "active",
        "urgency": null,
        "verificationTag": null,
        "expirationDate": null,
        "createdAt": "2026-03-11T21:00:47.592Z",
        "updatedAt": "2026-03-11T21:00:47.592Z"
      }
    },
    {
      "type": "Feature",
      "id": 81801,
      "geometry": {
        "type": "Point",
        "coordinates": [
          45.47756177902,
          36.15631098141
        ]
      },
      "properties": {
        "id": "MTk6OTE4MA",
        "city": "سردشت",
        "date": "1767862845",
        "name:fa": "سردشت (روز دوازدهم)",
        "province": "استان آذربایجان غربی",
        "name:en": "Sardasht (Day 12)",
        "city:en": "Sardasht",
        "province:en": "West Azerbaijan",
        "name:ar": "سردشت (اليوم الثاني عشر)",
        "city:ar": "سردشت",
        "province:ar": "أذربيجان الغربية",
        "name:he": "סרדשת (היום ה-12)",
        "city:he": "סרדשת",
        "province:he": "אזרבייג'ן המערבית",
        "publicId": "MTk6OTE4MA",
        "sourceId": "9180",
        "layerId": 19,
        "type": "event",
        "status": "active",
        "urgency": null,
        "verificationTag": null,
        "expirationDate": null,
        "createdAt": "2026-03-11T21:00:47.593Z",
        "updatedAt": "2026-03-11T21:00:47.593Z"
      }
    },
    {
      "type": "Feature",
      "id": 94884,
      "geometry": {
        "type": "Point",
        "coordinates": [
          47.001257836818695,
          35.31606192401537
        ]
      },
      "properties": {
        "status": "active",
        "name:fa": "اعتصابات سراسری",
        "date": 1789555487,
        "sources": "",
        "geolocates": "",
        "description": "اعتصابات سراسری کامل بازارهای گذر ۱ و ۲ در پی فراخوان ائتلاف نیروهای سیاسی کردستان ایران و سالگرد ژینا امینی",
        "city": "سنندج",
        "province": "استان کردستان",
        "name:en": "Nationwide Strikes",
        "description:en": "Complete nationwide strikes in Passages 1 and 2 bazaars following the call by the Coalition of Political Forces of Iranian Kurdistan and the anniversary of Jina Amini.",
        "city:en": "Sanandaj",
        "province:en": "Kurdistan",
        "name:ar": "إضرابات عامة",
        "description:ar": "إضراب عام كامل في أسواق الممرين 1 و2 استجابة لدعوة تحالف القوى السياسية في كردستان إيران وفي الذكرى السنوية لجينا أميني",
        "city:ar": "سنندج",
        "province:ar": "كردستان",
        "name:he": "שביתה כללית",
        "description:he": "שביתה כללית מלאה בשווקי גוזאר 1 ו-2 בעקבות קריאת קואליציית הכוחות הפוליטיים של כורדיסטן איראן ויום השנה לז'ינא אמיני",
        "city:he": "סננדג'",
        "province:he": "כורדיסטאן",
        "name:tr": "Genel Grevler",
        "description:tr": "İran Kürdistanı Siyasi Güçler Koalisyonu'nun çağrısı ve Jina Emini'nin yıldönümü üzerine 1 ve 2 Nolu Geçit Çarşılarında tam genel grev",
        "city:tr": "Senendec",
        "province:tr": "Kürdistan",
        "name:ckb": "مانگرتنی سەراسەری",
        "description:ckb": "مانگرتنی سەراسەریی تەواوی بازاڕەکانی گوزەری 1 و 2 لە دوای بانگەوازی هاوپەیمانیی هێزە سیاسییەکانی کوردستانی ئێران و ساڵیادی ژینا ئەمینی",
        "city:ckb": "سنە",
        "province:ckb": "کوردستان",
        "id": "MTk6NDI0ZjVlYmNiM2Y0",
        "publicId": "MTk6NDI0ZjVlYmNiM2Y0",
        "sourceId": "424f5ebcb3f4",
        "layerId": 19,
        "type": "event",
        "urgency": null,
        "verificationTag": "not-verified",
        "expirationDate": null,
        "createdAt": "2026-09-16T16:28:12.055Z",
        "updatedAt": "2026-09-16T16:28:12.055Z"
      }
    },
    {
      "type": "Feature",
      "id": 94885,
      "geometry": {
        "type": "Point",
        "coordinates": [
          46.99804253876209,
          35.317606525724514
        ]
      },
      "properties": {
        "status": "active",
        "name:fa": "اعتصابات سراسری",
        "date": 1789555406,
        "sources": "",
        "geolocates": "",
        "description": "اعتصابات سراسری در خیابان شاهپور (امام) در پی فراخوان ائتلاف نیروهای سیاسی کردستان و سالگرد ژینا امینی",
        "city": "سنندج",
        "province": "استان کردستان",
        "name:en": "Nationwide Strikes",
        "description:en": "Nationwide strikes on Shahpour (Emam) Street following a call by the Coalition of Kurdistan Political Forces and the anniversary of Zhina Amini",
        "city:en": "Sanandaj",
        "province:en": "Kurdistan",
        "name:ar": "إضرابات عامة",
        "description:ar": "إضراب عام في شارع شاهبور (الإمام) استجابة لدعوة تحالف القوى السياسية في كردستان وفي الذكرى السنوية لجينا أميني",
        "city:ar": "سنندج",
        "province:ar": "كردستان",
        "name:he": "שביתה כללית",
        "description:he": "שביתה כללית ברחוב שאהפור (אמאם) בעקבות קריאת קואליציית הכוחות הפוליטיים של כורדיסטן ויום השנה לז'ינא אמיני",
        "city:he": "סננדג'",
        "province:he": "כורדיסטאן",
        "name:tr": "Genel Grevler",
        "description:tr": "Kürdistan Siyasi Güçler Koalisyonu'nun çağrısı ve Jina Emini'nin yıldönümü üzerine Şahpur (İmam) Caddesi'nde genel grev",
        "city:tr": "Senendec",
        "province:tr": "Kürdistan",
        "name:ckb": "مانگرتنی سەراسەری",
        "description:ckb": "مانگرتنی سەراسەری لە شەقامی شاپوور (ئیمام) لە دوای بانگەوازی هاوپەیمانیی هێزە سیاسییەکانی کوردستان و ساڵیادی ژینا ئەمینی",
        "city:ckb": "سنە",
        "province:ckb": "کوردستان",
        "id": "MTk6MjZiZjAwZDhkMWE5",
        "publicId": "MTk6MjZiZjAwZDhkMWE5",
        "sourceId": "26bf00d8d1a9",
        "layerId": 19,
        "type": "event",
        "urgency": null,
        "verificationTag": "not-verified",
        "expirationDate": null,
        "createdAt": "2026-09-16T16:28:53.099Z",
        "updatedAt": "2026-09-16T16:28:53.099Z"
      }
    },
    {
      "type": "Feature",
      "id": 94886,
      "geometry": {
        "type": "Point",
        "coordinates": [
          46.9998362660408,
          35.317217505544235
        ]
      },
      "properties": {
        "status": "active",
        "name:fa": "اعتصاب بازار طلافروشان",
        "date": 1789555329,
        "sources": "",
        "geolocates": "",
        "description": "اعتصابات سراسری بازار طلافروشان در پی فراخوان احزاب ائتلاف نیروهای سیاسی کردستان ایران و سالگرد ژینا امینی",
        "city": "سنندج",
        "province": "استان کردستان",
        "name:en": "Goldsmiths Market Strike",
        "description:en": "Nationwide strikes in the gold market following the call by the Coalition of Political Forces of Iranian Kurdistan and the anniversary of Jina Amini",
        "city:en": "Sanandaj",
        "province:en": "Kurdistan",
        "name:ar": "إضراب سوق الصاغة",
        "description:ar": "إضراب عام في سوق الصاغة استجابة لدعوة أحزاب تحالف القوى السياسية في كردستان إيران وفي الذكرى السنوية لجينا أميني",
        "city:ar": "سنندج",
        "province:ar": "كردستان",
        "name:he": "שביתת שוק צורפי הזהב",
        "description:he": "שביתה כללית בשוק צורפי הזהב בעקבות קריאת מפלגות קואליציית הכוחות הפוליטיים של כורדיסטן איראן ויום השנה לז'ינא אמיני",
        "city:he": "סננדג'",
        "province:he": "כורדיסטאן",
        "name:tr": "Kuyumcular Çarşısı Grevi",
        "description:tr": "İran Kürdistanı Siyasi Güçler Koalisyonu partilerinin çağrısı ve Jina Emini'nin yıldönümü üzerine Kuyumcular Çarşısı'nda genel grev",
        "city:tr": "Senendec",
        "province:tr": "Kürdistan",
        "name:ckb": "مانگرتنی بازاڕی زێڕنگران",
        "description:ckb": "مانگرتنی سەراسەریی بازاڕی زێڕنگران لە دوای بانگەوازی حیزبەکانی هاوپەیمانیی هێزە سیاسییەکانی کوردستانی ئێران و ساڵیادی ژینا ئەمینی",
        "city:ckb": "سنە",
        "province:ckb": "کوردستان",
        "id": "MTk6NjM0OWIxOTc2MDAz",
        "publicId": "MTk6NjM0OWIxOTc2MDAz",
        "sourceId": "6349b1976003",
        "layerId": 19,
        "type": "event",
        "urgency": null,
        "verificationTag": "not-verified",
        "expirationDate": null,
        "createdAt": "2026-09-16T16:29:13.808Z",
        "updatedAt": "2026-09-16T16:29:13.808Z"
      }
    },
    {
      "type": "Feature",
      "id": 94887,
      "geometry": {
        "type": "Point",
        "coordinates": [
          46.99932564049959,
          35.30535477449203
        ]
      },
      "properties": {
        "status": "active",
        "name:fa": "اعتصابات سراسری",
        "date": 1789554694,
        "sources": "",
        "geolocates": "",
        "description": "اعتصابات سراسری مجتمع تجاری کوردستان در پی فراخوان ائتلاف نیروهای سیاسی کردستان ایران برای سالگرد ژینا امینی",
        "city": "سنندج",
        "province": "استان کردستان",
        "name:en": "Nationwide Strikes",
        "description:en": "Nationwide strikes at the Kurdistan Commercial Complex following a call by the Coalition of Political Forces of Iranian Kurdistan for the anniversary of Zhina Amini.",
        "city:en": "Sanandaj",
        "province:en": "Kurdistan",
        "name:ar": "إضرابات عامة",
        "description:ar": "إضراب عام في مجمع كردستان التجاري استجابة لدعوة تحالف القوى السياسية في كردستان إيران في الذكرى السنوية لجينا أميني",
        "city:ar": "سنندج",
        "province:ar": "كردستان",
        "name:he": "שביתה כללית",
        "description:he": "שביתה כללית במרכז המסחרי כורדיסטן בעקבות קריאת קואליציית הכוחות הפוליטיים של כורדיסטן איראן ליום השנה לז'ינא אמיני",
        "city:he": "סננדג'",
        "province:he": "כורדיסטאן",
        "name:tr": "Genel Grevler",
        "description:tr": "İran Kürdistanı Siyasi Güçler Koalisyonu'nun Jina Emini'nin yıldönümü için yaptığı çağrı üzerine Kürdistan Alışveriş Merkezi'nde genel grev",
        "city:tr": "Senendec",
        "province:tr": "Kürdistan",
        "name:ckb": "مانگرتنی سەراسەری",
        "description:ckb": "مانگرتنی سەراسەریی کۆمەڵگەی بازرگانیی کوردستان لە دوای بانگەوازی هاوپەیمانیی هێزە سیاسییەکانی کوردستانی ئێران بۆ ساڵیادی ژینا ئەمینی",
        "city:ckb": "سنە",
        "province:ckb": "کوردستان",
        "id": "MTk6YmYyYmVkZDE3MmUx",
        "publicId": "MTk6YmYyYmVkZDE3MmUx",
        "sourceId": "bf2bedd172e1",
        "layerId": 19,
        "type": "event",
        "urgency": null,
        "verificationTag": "not-verified",
        "expirationDate": null,
        "createdAt": "2026-09-16T16:31:37.179Z",
        "updatedAt": "2026-09-16T16:31:37.179Z"
      }
    },
    {
      "type": "Feature",
      "id": 94888,
      "geometry": {
        "type": "Point",
        "coordinates": [
          46.999651193618774,
          35.306300103066405
        ]
      },
      "properties": {
        "status": "active",
        "name:fa": "اعتصابات سراسری",
        "date": 1789554619,
        "sources": "",
        "geolocates": "",
        "description": "اعتصابات سراسری در مجتمع تجاری بانتا آبیدر سنندج در پی فراخوان ائتلاف نیروهای سیاسی کردستان ایران",
        "city": "سنندج",
        "province": "استان کردستان",
        "name:en": "Nationwide Strikes",
        "description:en": "Nationwide strikes at the Banta Abidar Commercial Complex in Sanandaj following a call by the coalition of political forces of Iranian Kurdistan.",
        "city:en": "Sanandaj",
        "province:en": "Kurdistan",
        "name:ar": "إضرابات عامة",
        "description:ar": "إضراب عام في مجمع بانتا آبيدر التجاري في سنندج استجابة لدعوة تحالف القوى السياسية في كردستان إيران",
        "city:ar": "سنندج",
        "province:ar": "كردستان",
        "name:he": "שביתה כללית",
        "description:he": "שביתה כללית במרכז המסחרי באנטה אבידר בסננדג' בעקבות קריאת קואליציית הכוחות הפוליטיים של כורדיסטן איראן",
        "city:he": "סננדג'",
        "province:he": "כורדיסטאן",
        "name:tr": "Genel Grevler",
        "description:tr": "İran Kürdistanı Siyasi Güçler Koalisyonu'nun çağrısı üzerine Senendec Banta Abider Alışveriş Merkezi'nde genel grev",
        "city:tr": "Senendec",
        "province:tr": "Kürdistan",
        "name:ckb": "مانگرتنی سەراسەری",
        "description:ckb": "مانگرتنی سەراسەری لە کۆمەڵگەی بازرگانیی بانتا ئاویەری سنە لە دوای بانگەوازی هاوپەیمانیی هێزە سیاسییەکانی کوردستانی ئێران",
        "city:ckb": "سنە",
        "province:ckb": "کوردستان",
        "id": "MTk6MGRhMmYyOTZkNjNk",
        "publicId": "MTk6MGRhMmYyOTZkNjNk",
        "sourceId": "0da2f296d63d",
        "layerId": 19,
        "type": "event",
        "urgency": null,
        "verificationTag": "not-verified",
        "expirationDate": null,
        "createdAt": "2026-09-16T16:32:12.709Z",
        "updatedAt": "2026-09-16T16:32:12.709Z"
      }
    },
    {
      "type": "Feature",
      "id": 94889,
      "geometry": {
        "type": "Point",
        "coordinates": [
          47.00285106897354,
          35.32895622734206
        ]
      },
      "properties": {
        "status": "active",
        "name:fa": "اعتصابات سراسری",
        "date": 1789554419,
        "sources": "",
        "geolocates": "",
        "description": "اعتصابات سراسری کامل بازار تاناکورای سنندج در پی ائتلاف نیروهای سیاسی کردستان ایران",
        "city": "سنندج",
        "province": "استان کردستان",
        "name:en": "Nationwide Strikes",
        "description:en": "Complete general strike at Sanandaj's Tanakora Market following the coalition of political forces of Iranian Kurdistan.",
        "city:en": "Sanandaj",
        "province:en": "Kurdistan",
        "name:ar": "إضرابات عامة",
        "description:ar": "إضراب عام كامل في سوق تاناكورا في سنندج إثر تحالف القوى السياسية في كردستان إيران",
        "city:ar": "سنندج",
        "province:ar": "كردستان",
        "name:he": "שביתה כללית",
        "description:he": "שביתה כללית מלאה בשוק טנאקורה בסננדג' בעקבות קואליציית הכוחות הפוליטיים של כורדיסטן איראן",
        "city:he": "סננדג'",
        "province:he": "כורדיסטאן",
        "name:tr": "Genel Grevler",
        "description:tr": "İran Kürdistanı Siyasi Güçler Koalisyonu'nun çağrısının ardından Senendec Tanakora Çarşısı'nda tam genel grev",
        "city:tr": "Senendec",
        "province:tr": "Kürdistan",
        "name:ckb": "مانگرتنی سەراسەری",
        "description:ckb": "مانگرتنی سەراسەریی تەواوی بازاڕی تاناکۆڕای سنە لە دوای هاوپەیمانیی هێزە سیاسییەکانی کوردستانی ئێران",
        "city:ckb": "سنە",
        "province:ckb": "کوردستان",
        "id": "MTk6ODFkNTU4ZWZlOThk",
        "publicId": "MTk6ODFkNTU4ZWZlOThk",
        "sourceId": "81d558efe98d",
        "layerId": 19,
        "type": "event",
        "urgency": null,
        "verificationTag": "not-verified",
        "expirationDate": null,
        "createdAt": "2026-09-16T16:32:33.108Z",
        "updatedAt": "2026-09-16T16:32:33.108Z"
      }
    },
    {
      "type": "Feature",
      "id": 94890,
      "geometry": {
        "type": "Point",
        "coordinates": [
          46.997915133833885,
          35.31490413732617
        ]
      },
      "properties": {
        "status": "active",
        "name:fa": "اعتصابات سراسری",
        "date": 1789554361,
        "sources": "",
        "geolocates": "",
        "description": "اعتصابات سراسری بازار و خیابان فردوسی سنندج در پی فراخوان ائتلاف نیروهای سیاسی کردستان ایران",
        "city": "سنندج",
        "province": "استان کردستان",
        "name:en": "Nationwide Strikes",
        "description:en": "General strikes in the bazaar and Ferdowsi Street of Sanandaj following a call by the Coalition of Political Forces of Iranian Kurdistan",
        "city:en": "Sanandaj",
        "province:en": "Kurdistan",
        "name:ar": "إضرابات عامة",
        "description:ar": "إضرابات عامة في السوق وشارع فردوسي في سنندج استجابة لدعوة تحالف القوى السياسية في كردستان إيران",
        "city:ar": "سنندج",
        "province:ar": "كردستان",
        "name:he": "שביתה כללית",
        "description:he": "שביתה כללית בשוק וברחוב פרדוסי בסננדג' בעקבות קריאת קואליציית הכוחות הפוליטיים של כורדיסטן איראן",
        "city:he": "סננדג'",
        "province:he": "כורדיסטאן",
        "name:tr": "Genel Grevler",
        "description:tr": "İran Kürdistanı Siyasi Güçler Koalisyonu'nun çağrısı üzerine Senendec Çarşısı ve Firdevsi Caddesi'nde genel grev",
        "city:tr": "Senendec",
        "province:tr": "Kürdistan",
        "name:ckb": "مانگرتنی سەراسەری",
        "description:ckb": "مانگرتنی سەراسەریی بازاڕ و شەقامی فردۆسیی سنە لە دوای بانگەوازی هاوپەیمانیی هێزە سیاسییەکانی کوردستانی ئێران",
        "city:ckb": "سنە",
        "province:ckb": "کوردستان",
        "id": "MTk6OWZhYTdjMjViOTRm",
        "publicId": "MTk6OWZhYTdjMjViOTRm",
        "sourceId": "9faa7c25b94f",
        "layerId": 19,
        "type": "event",
        "urgency": null,
        "verificationTag": "not-verified",
        "expirationDate": null,
        "createdAt": "2026-09-16T16:32:56.791Z",
        "updatedAt": "2026-09-16T16:32:56.791Z"
      }
    },
    {
      "type": "Feature",
      "id": 94892,
      "geometry": {
        "type": "Point",
        "coordinates": [
          46.997339464724064,
          35.309455587330035
        ]
      },
      "properties": {
        "status": "active",
        "name:fa": "اعتصابات سراسری",
        "date": 1789577417,
        "sources": "",
        "geolocates": "",
        "description": "اعتصابات سراسری کامل در خیابان ششم بهمن سنندج در پی فراخوان ائتلاف احزاب سیاسی کردستان و سالگرد ژینا امینی",
        "city": "سنندج",
        "province": "استان کردستان",
        "name:en": "General Strikes",
        "description:en": "Complete general strikes on Shesh-e Bahman Street in Sanandaj following the call by the coalition of Kurdish political parties and the anniversary of Zhina Amini.",
        "city:en": "Sanandaj",
        "province:en": "Kurdistan",
        "name:ar": "إضرابات عامة",
        "description:ar": "إضراب عام كامل في شارع 6 بهمن في سنندج استجابة لدعوة تحالف الأحزاب السياسية الكردستانية وفي الذكرى السنوية لجينا أميني",
        "city:ar": "سنندج",
        "province:ar": "كردستان",
        "name:he": "שביתה כללית",
        "description:he": "שביתה כללית מלאה ברחוב ששום-א בהמן בסננדג' בעקבות קריאת קואליציית המפלגות הפוליטיות של כורדיסטן ויום השנה לז'ינא אמיני",
        "city:he": "סננדג'",
        "province:he": "כורדיסטאן",
        "name:tr": "Genel Grevler",
        "description:tr": "Kürdistan Siyasi Partiler Koalisyonu'nun çağrısı ve Jina Emini'nin yıldönümü üzerine Senendec'in Şeş-i Behmen Caddesi'nde tam genel grev",
        "city:tr": "Senendec",
        "province:tr": "Kürdistan",
        "name:ckb": "مانگرتنی سەراسەری",
        "description:ckb": "مانگرتنی سەراسەریی تەواو لە شەقامی شەشەمی بەهمەنی سنە لە دوای بانگەوازی هاوپەیمانیی حیزبە سیاسییەکانی کوردستان و ساڵیادی ژینا ئەمینی",
        "city:ckb": "سنە",
        "province:ckb": "کوردستان",
        "id": "MTk6Zjc1MGQ4MzdlZDJk",
        "publicId": "MTk6Zjc1MGQ4MzdlZDJk",
        "sourceId": "f750d837ed2d",
        "layerId": 19,
        "type": "event",
        "urgency": null,
        "verificationTag": "not-verified",
        "expirationDate": null,
        "createdAt": "2026-09-16T17:06:14.002Z",
        "updatedAt": "2026-09-16T17:06:14.002Z"
      }
    }
  ],
  "metadata": {
    "total": 48,
    "layerId": 19,
    "clustered": false,
    "simplified": false
  }
}